{
  "type": "FeatureCollection",
  "metadata": {
    "description": "SAIM Xplorer Semantic Object Map",
    "frame": "map",
    "generated_by": "semantic_localizer",
    "last_updated": "2026-03-04T09:06:27.804146+00:00",
    "object_count": 29
  },
  "features": [
    {
      "type": "Feature",
      "geometry": {
        "type": "Point",
        "coordinates": [
          7.4689,
          -1.593
        ]
      },
      "properties": {
        "obj_id": "potted plant_0",
        "class_name": "potted plant",
        "class_id": 58,
        "mobility": "static",
        "confidence": 0.68,
        "observation_count": 12,
        "best_score": 1.26,
        "first_seen": "2026-03-04T08:58:57.758107+00:00",
        "last_seen": "2026-03-04T09:01:13.798382+00:00",
        "ttl_seconds": -1.0
      }
    },
    {
      "type": "Feature",
      "geometry": {
        "type": "Point",
        "coordinates": [
          8.8225,
          1.7124
        ]
      },
      "properties": {
        "obj_id": "potted plant_1",
        "class_name": "potted plant",
        "class_id": 58,
        "mobility": "static",
        "confidence": 0.578,
        "observation_count": 3,
        "best_score": 0.805,
        "first_seen": "2026-03-04T08:59:02.328932+00:00",
        "last_seen": "2026-03-04T08:59:02.329995+00:00",
        "ttl_seconds": -1.0
      }
    },
    {
      "type": "Feature",
      "geometry": {
        "type": "Point",
        "coordinates": [
          8.2582,
          1.3631
        ]
      },
      "properties": {
        "obj_id": "bench_2",
        "class_name": "bench",
        "class_id": 13,
        "mobility": "static",
        "confidence": 0.659,
        "observation_count": 6,
        "best_score": 1.719,
        "first_seen": "2026-03-04T08:59:02.822898+00:00",
        "last_seen": "2026-03-04T08:59:02.823997+00:00",
        "ttl_seconds": -1.0
      }
    },
    {
      "type": "Feature",
      "geometry": {
        "type": "Point",
        "coordinates": [
          8.9738,
          -0.1685
        ]
      },
      "properties": {
        "obj_id": "bench_3",
        "class_name": "bench",
        "class_id": 13,
        "mobility": "static",
        "confidence": 0.526,
        "observation_count": 2,
        "best_score": 3.045,
        "first_seen": "2026-03-04T08:59:24.691687+00:00",
        "last_seen": "2026-03-04T08:59:24.693022+00:00",
        "ttl_seconds": -1.0
      }
    },
    {
      "type": "Feature",
      "geometry": {
        "type": "Point",
        "coordinates": [
          6.5701,
          -1.9253
        ]
      },
      "properties": {
        "obj_id": "potted plant_4",
        "class_name": "potted plant",
        "class_id": 58,
        "mobility": "static",
        "confidence": 0.721,
        "observation_count": 67,
        "best_score": 6.414,
        "first_seen": "2026-03-04T08:59:42.697834+00:00",
        "last_seen": "2026-03-04T09:03:16.873137+00:00",
        "ttl_seconds": -1.0
      }
    },
    {
      "type": "Feature",
      "geometry": {
        "type": "Point",
        "coordinates": [
          4.5374,
          -1.3854
        ]
      },
      "properties": {
        "obj_id": "potted plant_5",
        "class_name": "potted plant",
        "class_id": 58,
        "mobility": "static",
        "confidence": 0.826,
        "observation_count": 60,
        "best_score": 4.204,
        "first_seen": "2026-03-04T08:59:43.163996+00:00",
        "last_seen": "2026-03-04T09:01:41.155558+00:00",
        "ttl_seconds": -1.0
      }
    },
    {
      "type": "Feature",
      "geometry": {
        "type": "Point",
        "coordinates": [
          4.3091,
          -1.1526
        ]
      },
      "properties": {
        "obj_id": "chair_6",
        "class_name": "chair",
        "class_id": 56,
        "mobility": "static",
        "confidence": 0.551,
        "observation_count": 1,
        "best_score": 6.671,
        "first_seen": "2026-03-04T08:59:43.559861+00:00",
        "last_seen": "2026-03-04T08:59:43.559861+00:00",
        "ttl_seconds": -1.0
      }
    },
    {
      "type": "Feature",
      "geometry": {
        "type": "Point",
        "coordinates": [
          2.537,
          -1.2186
        ]
      },
      "properties": {
        "obj_id": "chair_7",
        "class_name": "chair",
        "class_id": 56,
        "mobility": "static",
        "confidence": 0.695,
        "observation_count": 31,
        "best_score": 8.929,
        "first_seen": "2026-03-04T09:00:28.702938+00:00",
        "last_seen": "2026-03-04T09:00:31.914230+00:00",
        "ttl_seconds": -1.0
      }
    },
    {
      "type": "Feature",
      "geometry": {
        "type": "Point",
        "coordinates": [
          8.9102,
          0.5927
        ]
      },
      "properties": {
        "obj_id": "potted plant_8",
        "class_name": "potted plant",
        "class_id": 58,
        "mobility": "static",
        "confidence": 0.581,
        "observation_count": 7,
        "best_score": 0.813,
        "first_seen": "2026-03-04T09:00:37.455210+00:00",
        "last_seen": "2026-03-04T09:00:51.903604+00:00",
        "ttl_seconds": -1.0
      }
    },
    {
      "type": "Feature",
      "geometry": {
        "type": "Point",
        "coordinates": [
          5.304,
          -1.6327
        ]
      },
      "properties": {
        "obj_id": "chair_12",
        "class_name": "chair",
        "class_id": 56,
        "mobility": "static",
        "confidence": 0.557,
        "observation_count": 2,
        "best_score": 6.368,
        "first_seen": "2026-03-04T09:01:39.655332+00:00",
        "last_seen": "2026-03-04T09:01:39.656570+00:00",
        "ttl_seconds": -1.0
      }
    },
    {
      "type": "Feature",
      "geometry": {
        "type": "Point",
        "coordinates": [
          5.1919,
          -1.4948
        ]
      },
      "properties": {
        "obj_id": "potted plant_13",
        "class_name": "potted plant",
        "class_id": 58,
        "mobility": "static",
        "confidence": 0.797,
        "observation_count": 30,
        "best_score": 5.205,
        "first_seen": "2026-03-04T09:01:40.169861+00:00",
        "last_seen": "2026-03-04T09:03:18.308947+00:00",
        "ttl_seconds": -1.0
      }
    },
    {
      "type": "Feature",
      "geometry": {
        "type": "Point",
        "coordinates": [
          -0.37,
          0.9072
        ]
      },
      "properties": {
        "obj_id": "bench_14",
        "class_name": "bench",
        "class_id": 13,
        "mobility": "static",
        "confidence": 0.601,
        "observation_count": 3,
        "best_score": 9.157,
        "first_seen": "2026-03-04T09:02:21.175549+00:00",
        "last_seen": "2026-03-04T09:02:21.176690+00:00",
        "ttl_seconds": -1.0
      }
    },
    {
      "type": "Feature",
      "geometry": {
        "type": "Point",
        "coordinates": [
          1.8105,
          -1.7902
        ]
      },
      "properties": {
        "obj_id": "laptop_15",
        "class_name": "laptop",
        "class_id": 63,
        "mobility": "static",
        "confidence": 0.662,
        "observation_count": 9,
        "best_score": 20.188,
        "first_seen": "2026-03-04T09:02:32.640153+00:00",
        "last_seen": "2026-03-04T09:02:43.154585+00:00",
        "ttl_seconds": -1.0
      }
    },
    {
      "type": "Feature",
      "geometry": {
        "type": "Point",
        "coordinates": [
          3.5522,
          5.3016
        ]
      },
      "properties": {
        "obj_id": "chair_16",
        "class_name": "chair",
        "class_id": 56,
        "mobility": "static",
        "confidence": 0.566,
        "observation_count": 3,
        "best_score": 2.845,
        "first_seen": "2026-03-04T09:02:36.999599+00:00",
        "last_seen": "2026-03-04T09:02:37.001615+00:00",
        "ttl_seconds": -1.0
      }
    },
    {
      "type": "Feature",
      "geometry": {
        "type": "Point",
        "coordinates": [
          1.3668,
          6.9186
        ]
      },
      "properties": {
        "obj_id": "chair_17",
        "class_name": "chair",
        "class_id": 56,
        "mobility": "static",
        "confidence": 0.529,
        "observation_count": 3,
        "best_score": 3.165,
        "first_seen": "2026-03-04T09:02:37.000687+00:00",
        "last_seen": "2026-03-04T09:02:37.001583+00:00",
        "ttl_seconds": -1.0
      }
    },
    {
      "type": "Feature",
      "geometry": {
        "type": "Point",
        "coordinates": [
          1.4702,
          -1.9425
        ]
      },
      "properties": {
        "obj_id": "laptop_18",
        "class_name": "laptop",
        "class_id": 63,
        "mobility": "static",
        "confidence": 0.684,
        "observation_count": 8,
        "best_score": 21.187,
        "first_seen": "2026-03-04T09:02:42.800281+00:00",
        "last_seen": "2026-03-04T09:02:42.801346+00:00",
        "ttl_seconds": -1.0
      }
    },
    {
      "type": "Feature",
      "geometry": {
        "type": "Point",
        "coordinates": [
          2.3829,
          -1.829
        ]
      },
      "properties": {
        "obj_id": "chair_19",
        "class_name": "chair",
        "class_id": 56,
        "mobility": "static",
        "confidence": 0.664,
        "observation_count": 15,
        "best_score": 4.715,
        "first_seen": "2026-03-04T09:02:44.939976+00:00",
        "last_seen": "2026-03-04T09:02:45.398719+00:00",
        "ttl_seconds": -1.0
      }
    },
    {
      "type": "Feature",
      "geometry": {
        "type": "Point",
        "coordinates": [
          4.1699,
          -1.1505
        ]
      },
      "properties": {
        "obj_id": "bench_20",
        "class_name": "bench",
        "class_id": 13,
        "mobility": "static",
        "confidence": 0.688,
        "observation_count": 12,
        "best_score": 5.528,
        "first_seen": "2026-03-04T09:02:45.847270+00:00",
        "last_seen": "2026-03-04T09:04:03.166761+00:00",
        "ttl_seconds": -1.0
      }
    },
    {
      "type": "Feature",
      "geometry": {
        "type": "Point",
        "coordinates": [
          4.6356,
          -0.8928
        ]
      },
      "properties": {
        "obj_id": "bench_21",
        "class_name": "bench",
        "class_id": 13,
        "mobility": "static",
        "confidence": 0.509,
        "observation_count": 1,
        "best_score": 2.072,
        "first_seen": "2026-03-04T09:02:50.430508+00:00",
        "last_seen": "2026-03-04T09:02:50.430508+00:00",
        "ttl_seconds": -1.0
      }
    },
    {
      "type": "Feature",
      "geometry": {
        "type": "Point",
        "coordinates": [
          8.8343,
          0.4492
        ]
      },
      "properties": {
        "obj_id": "bench_22",
        "class_name": "bench",
        "class_id": 13,
        "mobility": "static",
        "confidence": 0.567,
        "observation_count": 8,
        "best_score": 3.3,
        "first_seen": "2026-03-04T09:02:56.881019+00:00",
        "last_seen": "2026-03-04T09:02:57.711467+00:00",
        "ttl_seconds": -1.0
      }
    },
    {
      "type": "Feature",
      "geometry": {
        "type": "Point",
        "coordinates": [
          8.637,
          6.7106
        ]
      },
      "properties": {
        "obj_id": "potted plant_23",
        "class_name": "potted plant",
        "class_id": 58,
        "mobility": "static",
        "confidence": 0.614,
        "observation_count": 4,
        "best_score": 0.334,
        "first_seen": "2026-03-04T09:03:01.995696+00:00",
        "last_seen": "2026-03-04T09:03:02.445768+00:00",
        "ttl_seconds": -1.0
      }
    },
    {
      "type": "Feature",
      "geometry": {
        "type": "Point",
        "coordinates": [
          2.9054,
          -0.9029
        ]
      },
      "properties": {
        "obj_id": "bench_24",
        "class_name": "bench",
        "class_id": 13,
        "mobility": "static",
        "confidence": 0.525,
        "observation_count": 2,
        "best_score": 4.672,
        "first_seen": "2026-03-04T09:03:18.307994+00:00",
        "last_seen": "2026-03-04T09:03:18.308987+00:00",
        "ttl_seconds": -1.0
      }
    },
    {
      "type": "Feature",
      "geometry": {
        "type": "Point",
        "coordinates": [
          3.7073,
          -1.3772
        ]
      },
      "properties": {
        "obj_id": "bench_25",
        "class_name": "bench",
        "class_id": 13,
        "mobility": "static",
        "confidence": 0.572,
        "observation_count": 2,
        "best_score": 4.395,
        "first_seen": "2026-03-04T09:04:03.605817+00:00",
        "last_seen": "2026-03-04T09:04:03.607059+00:00",
        "ttl_seconds": -1.0
      }
    },
    {
      "type": "Feature",
      "geometry": {
        "type": "Point",
        "coordinates": [
          5.8831,
          0.5705
        ]
      },
      "properties": {
        "obj_id": "person_26",
        "class_name": "person",
        "class_id": 0,
        "mobility": "dynamic",
        "confidence": 0.612,
        "observation_count": 1,
        "best_score": 0.883,
        "first_seen": "2026-03-04T09:05:47.667461+00:00",
        "last_seen": "2026-03-04T09:05:47.667461+00:00",
        "ttl_seconds": 60.0
      }
    },
    {
      "type": "Feature",
      "geometry": {
        "type": "Point",
        "coordinates": [
          4.1689,
          0.0266
        ]
      },
      "properties": {
        "obj_id": "person_27",
        "class_name": "person",
        "class_id": 0,
        "mobility": "dynamic",
        "confidence": 0.922,
        "observation_count": 11,
        "best_score": 7.649,
        "first_seen": "2026-03-04T09:05:47.668488+00:00",
        "last_seen": "2026-03-04T09:06:13.095869+00:00",
        "ttl_seconds": 60.0
      }
    },
    {
      "type": "Feature",
      "geometry": {
        "type": "Point",
        "coordinates": [
          2.2842,
          0.2577
        ]
      },
      "properties": {
        "obj_id": "person_28",
        "class_name": "person",
        "class_id": 0,
        "mobility": "dynamic",
        "confidence": 0.914,
        "observation_count": 39,
        "best_score": 11.823,
        "first_seen": "2026-03-04T09:05:48.126495+00:00",
        "last_seen": "2026-03-04T09:05:49.369268+00:00",
        "ttl_seconds": 60.0
      }
    },
    {
      "type": "Feature",
      "geometry": {
        "type": "Point",
        "coordinates": [
          2.2287,
          -0.0148
        ]
      },
      "properties": {
        "obj_id": "bottle_29",
        "class_name": "bottle",
        "class_id": 39,
        "mobility": "minor",
        "confidence": 0.844,
        "observation_count": 898,
        "best_score": 4.801,
        "first_seen": "2026-03-04T09:05:48.127512+00:00",
        "last_seen": "2026-03-04T09:06:27.409008+00:00",
        "ttl_seconds": 120.0
      }
    },
    {
      "type": "Feature",
      "geometry": {
        "type": "Point",
        "coordinates": [
          7.7526,
          -0.4044
        ]
      },
      "properties": {
        "obj_id": "person_30",
        "class_name": "person",
        "class_id": 0,
        "mobility": "dynamic",
        "confidence": 0.914,
        "observation_count": 19,
        "best_score": 3.944,
        "first_seen": "2026-03-04T09:06:13.507983+00:00",
        "last_seen": "2026-03-04T09:06:13.939923+00:00",
        "ttl_seconds": 60.0
      }
    },
    {
      "type": "Feature",
      "geometry": {
        "type": "Point",
        "coordinates": [
          3.5537,
          -0.3489
        ]
      },
      "properties": {
        "obj_id": "bottle_31",
        "class_name": "bottle",
        "class_id": 39,
        "mobility": "minor",
        "confidence": 0.746,
        "observation_count": 1,
        "best_score": 1.732,
        "first_seen": "2026-03-04T09:06:22.026704+00:00",
        "last_seen": "2026-03-04T09:06:22.026704+00:00",
        "ttl_seconds": 120.0
      }
    }
  ]
}