{
  "type": "FeatureCollection",
  "metadata": {
    "description": "SAIM Xplorer Semantic Object Map",
    "frame": "map",
    "generated_by": "semantic_localizer",
    "last_updated": "2026-02-26T13:26:24.848152+00:00",
    "object_count": 1
  },
  "features": [
    {
      "type": "Feature",
      "geometry": {
        "type": "Point",
        "coordinates": [
          2.1337,
          -0.1448
        ]
      },
      "properties": {
        "obj_id": "bottle_0",
        "class_name": "bottle",
        "class_id": 39,
        "mobility": "minor",
        "confidence": 0.863,
        "observation_count": 90,
        "best_score": 4.413,
        "first_seen": "2026-02-26T13:25:45.629451+00:00",
        "last_seen": "2026-02-26T13:26:15.860098+00:00",
        "ttl_seconds": 120.0
      }
    }
  ]
}