{
  "type": "FeatureCollection",
  "metadata": {
    "description": "SAIM Xplorer Semantic Object Map",
    "frame": "map",
    "generated_by": "semantic_localizer",
    "last_updated": "2026-02-26T12:24:56.842790+00:00",
    "object_count": 26
  },
  "features": [
    {
      "type": "Feature",
      "geometry": {
        "type": "Point",
        "coordinates": [
          3.7493,
          -1.2624
        ]
      },
      "properties": {
        "obj_id": "bench_0",
        "class_name": "bench",
        "class_id": 13,
        "mobility": "static",
        "confidence": 0.795,
        "observation_count": 2780,
        "best_score": 6.203,
        "first_seen": "2026-02-26T12:29:00.100196+00:00",
        "last_seen": "2026-02-26T12:24:56.605958+00:00",
        "ttl_seconds": -1.0
      }
    },
    {
      "type": "Feature",
      "geometry": {
        "type": "Point",
        "coordinates": [
          4.905,
          3.781
        ]
      },
      "properties": {
        "obj_id": "bench_4",
        "class_name": "bench",
        "class_id": 13,
        "mobility": "static",
        "confidence": 0.509,
        "observation_count": 1,
        "best_score": 3.359,
        "first_seen": "2026-02-26T12:29:07.021810+00:00",
        "last_seen": "2026-02-26T12:29:07.021810+00:00",
        "ttl_seconds": -1.0
      }
    },
    {
      "type": "Feature",
      "geometry": {
        "type": "Point",
        "coordinates": [
          9.038,
          -0.287
        ]
      },
      "properties": {
        "obj_id": "bench_6",
        "class_name": "bench",
        "class_id": 13,
        "mobility": "static",
        "confidence": 0.754,
        "observation_count": 80,
        "best_score": 5.545,
        "first_seen": "2026-02-26T12:29:22.579965+00:00",
        "last_seen": "2026-02-26T12:29:32.065864+00:00",
        "ttl_seconds": -1.0
      }
    },
    {
      "type": "Feature",
      "geometry": {
        "type": "Point",
        "coordinates": [
          5.1391,
          -1.7164
        ]
      },
      "properties": {
        "obj_id": "potted plant_7",
        "class_name": "potted plant",
        "class_id": 58,
        "mobility": "static",
        "confidence": 0.831,
        "observation_count": 89,
        "best_score": 5.026,
        "first_seen": "2026-02-26T12:29:39.014841+00:00",
        "last_seen": "2026-02-26T12:33:35.217141+00:00",
        "ttl_seconds": -1.0
      }
    },
    {
      "type": "Feature",
      "geometry": {
        "type": "Point",
        "coordinates": [
          2.3416,
          -1.2412
        ]
      },
      "properties": {
        "obj_id": "bench_8",
        "class_name": "bench",
        "class_id": 13,
        "mobility": "static",
        "confidence": 0.574,
        "observation_count": 5,
        "best_score": 5.943,
        "first_seen": "2026-02-26T12:29:41.208838+00:00",
        "last_seen": "2026-02-26T12:29:41.210245+00:00",
        "ttl_seconds": -1.0
      }
    },
    {
      "type": "Feature",
      "geometry": {
        "type": "Point",
        "coordinates": [
          1.8083,
          7.034
        ]
      },
      "properties": {
        "obj_id": "microwave_9",
        "class_name": "microwave",
        "class_id": 68,
        "mobility": "static",
        "confidence": 0.615,
        "observation_count": 3,
        "best_score": 1.859,
        "first_seen": "2026-02-26T12:31:12.653461+00:00",
        "last_seen": "2026-02-26T12:31:12.654707+00:00",
        "ttl_seconds": -1.0
      }
    },
    {
      "type": "Feature",
      "geometry": {
        "type": "Point",
        "coordinates": [
          7.7285,
          -1.5002
        ]
      },
      "properties": {
        "obj_id": "potted plant_12",
        "class_name": "potted plant",
        "class_id": 58,
        "mobility": "static",
        "confidence": 0.748,
        "observation_count": 75,
        "best_score": 1.221,
        "first_seen": "2026-02-26T12:31:35.665471+00:00",
        "last_seen": "2026-02-26T12:24:48.653949+00:00",
        "ttl_seconds": -1.0
      }
    },
    {
      "type": "Feature",
      "geometry": {
        "type": "Point",
        "coordinates": [
          8.9131,
          0.3898
        ]
      },
      "properties": {
        "obj_id": "bench_13",
        "class_name": "bench",
        "class_id": 13,
        "mobility": "static",
        "confidence": 0.527,
        "observation_count": 4,
        "best_score": 3.294,
        "first_seen": "2026-02-26T12:31:41.780741+00:00",
        "last_seen": "2026-02-26T12:33:13.809874+00:00",
        "ttl_seconds": -1.0
      }
    },
    {
      "type": "Feature",
      "geometry": {
        "type": "Point",
        "coordinates": [
          1.6009,
          -1.1883
        ]
      },
      "properties": {
        "obj_id": "bench_14",
        "class_name": "bench",
        "class_id": 13,
        "mobility": "static",
        "confidence": 0.739,
        "observation_count": 8,
        "best_score": 5.324,
        "first_seen": "2026-02-26T12:32:02.248027+00:00",
        "last_seen": "2026-02-26T12:32:02.249088+00:00",
        "ttl_seconds": -1.0
      }
    },
    {
      "type": "Feature",
      "geometry": {
        "type": "Point",
        "coordinates": [
          1.7535,
          -1.6751
        ]
      },
      "properties": {
        "obj_id": "bench_15",
        "class_name": "bench",
        "class_id": 13,
        "mobility": "static",
        "confidence": 0.537,
        "observation_count": 3,
        "best_score": 3.592,
        "first_seen": "2026-02-26T12:32:02.715151+00:00",
        "last_seen": "2026-02-26T12:32:02.716379+00:00",
        "ttl_seconds": -1.0
      }
    },
    {
      "type": "Feature",
      "geometry": {
        "type": "Point",
        "coordinates": [
          2.4842,
          -1.5838
        ]
      },
      "properties": {
        "obj_id": "laptop_16",
        "class_name": "laptop",
        "class_id": 63,
        "mobility": "static",
        "confidence": 0.534,
        "observation_count": 2,
        "best_score": 15.95,
        "first_seen": "2026-02-26T12:32:49.264547+00:00",
        "last_seen": "2026-02-26T12:32:49.265754+00:00",
        "ttl_seconds": -1.0
      }
    },
    {
      "type": "Feature",
      "geometry": {
        "type": "Point",
        "coordinates": [
          4.4546,
          4.4842
        ]
      },
      "properties": {
        "obj_id": "chair_17",
        "class_name": "chair",
        "class_id": 56,
        "mobility": "static",
        "confidence": 0.677,
        "observation_count": 9,
        "best_score": 3.705,
        "first_seen": "2026-02-26T12:32:52.984197+00:00",
        "last_seen": "2026-02-26T12:32:52.985735+00:00",
        "ttl_seconds": -1.0
      }
    },
    {
      "type": "Feature",
      "geometry": {
        "type": "Point",
        "coordinates": [
          2.254,
          6.938
        ]
      },
      "properties": {
        "obj_id": "chair_18",
        "class_name": "chair",
        "class_id": 56,
        "mobility": "static",
        "confidence": 0.557,
        "observation_count": 4,
        "best_score": 2.577,
        "first_seen": "2026-02-26T12:32:53.763306+00:00",
        "last_seen": "2026-02-26T12:32:53.764958+00:00",
        "ttl_seconds": -1.0
      }
    },
    {
      "type": "Feature",
      "geometry": {
        "type": "Point",
        "coordinates": [
          0.1005,
          -1.1024
        ]
      },
      "properties": {
        "obj_id": "laptop_19",
        "class_name": "laptop",
        "class_id": 63,
        "mobility": "static",
        "confidence": 0.683,
        "observation_count": 5,
        "best_score": 34.919,
        "first_seen": "2026-02-26T12:32:57.587584+00:00",
        "last_seen": "2026-02-26T12:32:57.589544+00:00",
        "ttl_seconds": -1.0
      }
    },
    {
      "type": "Feature",
      "geometry": {
        "type": "Point",
        "coordinates": [
          4.4856,
          -0.8695
        ]
      },
      "properties": {
        "obj_id": "bench_20",
        "class_name": "bench",
        "class_id": 13,
        "mobility": "static",
        "confidence": 0.794,
        "observation_count": 41,
        "best_score": 5.457,
        "first_seen": "2026-02-26T12:33:04.449755+00:00",
        "last_seen": "2026-02-26T12:41:36.243018+00:00",
        "ttl_seconds": -1.0
      }
    },
    {
      "type": "Feature",
      "geometry": {
        "type": "Point",
        "coordinates": [
          7.7939,
          -0.5591
        ]
      },
      "properties": {
        "obj_id": "potted plant_21",
        "class_name": "potted plant",
        "class_id": 58,
        "mobility": "static",
        "confidence": 0.537,
        "observation_count": 4,
        "best_score": 1.032,
        "first_seen": "2026-02-26T12:33:06.065268+00:00",
        "last_seen": "2026-02-26T12:33:06.555184+00:00",
        "ttl_seconds": -1.0
      }
    },
    {
      "type": "Feature",
      "geometry": {
        "type": "Point",
        "coordinates": [
          7.168,
          -1.334
        ]
      },
      "properties": {
        "obj_id": "bench_22",
        "class_name": "bench",
        "class_id": 13,
        "mobility": "static",
        "confidence": 0.542,
        "observation_count": 6,
        "best_score": 0.903,
        "first_seen": "2026-02-26T12:33:07.433049+00:00",
        "last_seen": "2026-02-26T12:41:37.382984+00:00",
        "ttl_seconds": -1.0
      }
    },
    {
      "type": "Feature",
      "geometry": {
        "type": "Point",
        "coordinates": [
          7.6508,
          -1.0175
        ]
      },
      "properties": {
        "obj_id": "potted plant_23",
        "class_name": "potted plant",
        "class_id": 58,
        "mobility": "static",
        "confidence": 0.586,
        "observation_count": 4,
        "best_score": 0.788,
        "first_seen": "2026-02-26T12:33:10.453549+00:00",
        "last_seen": "2026-02-26T12:33:10.880137+00:00",
        "ttl_seconds": -1.0
      }
    },
    {
      "type": "Feature",
      "geometry": {
        "type": "Point",
        "coordinates": [
          0.9062,
          -1.3405
        ]
      },
      "properties": {
        "obj_id": "bench_24",
        "class_name": "bench",
        "class_id": 13,
        "mobility": "static",
        "confidence": 0.686,
        "observation_count": 9,
        "best_score": 5.098,
        "first_seen": "2026-02-26T12:33:36.090644+00:00",
        "last_seen": "2026-02-26T12:33:36.092061+00:00",
        "ttl_seconds": -1.0
      }
    },
    {
      "type": "Feature",
      "geometry": {
        "type": "Point",
        "coordinates": [
          3.9642,
          5.2834
        ]
      },
      "properties": {
        "obj_id": "chair_26",
        "class_name": "chair",
        "class_id": 56,
        "mobility": "static",
        "confidence": 0.628,
        "observation_count": 11,
        "best_score": 2.542,
        "first_seen": "2026-02-26T12:41:46.954051+00:00",
        "last_seen": "2026-02-26T12:41:47.343412+00:00",
        "ttl_seconds": -1.0
      }
    },
    {
      "type": "Feature",
      "geometry": {
        "type": "Point",
        "coordinates": [
          5.5176,
          -1.1425
        ]
      },
      "properties": {
        "obj_id": "bench_27",
        "class_name": "bench",
        "class_id": 13,
        "mobility": "static",
        "confidence": 0.612,
        "observation_count": 8,
        "best_score": 1.683,
        "first_seen": "2026-02-26T12:44:00.176975+00:00",
        "last_seen": "2026-02-26T12:44:00.612165+00:00",
        "ttl_seconds": -1.0
      }
    },
    {
      "type": "Feature",
      "geometry": {
        "type": "Point",
        "coordinates": [
          3.9984,
          5.9972
        ]
      },
      "properties": {
        "obj_id": "chair_30",
        "class_name": "chair",
        "class_id": 56,
        "mobility": "static",
        "confidence": 0.535,
        "observation_count": 1,
        "best_score": 1.904,
        "first_seen": "2026-02-26T12:44:06.643555+00:00",
        "last_seen": "2026-02-26T12:44:06.643555+00:00",
        "ttl_seconds": -1.0
      }
    },
    {
      "type": "Feature",
      "geometry": {
        "type": "Point",
        "coordinates": [
          3.141,
          6.4974
        ]
      },
      "properties": {
        "obj_id": "potted plant_31",
        "class_name": "potted plant",
        "class_id": 58,
        "mobility": "static",
        "confidence": 0.674,
        "observation_count": 11,
        "best_score": 13.678,
        "first_seen": "2026-02-26T12:44:07.516036+00:00",
        "last_seen": "2026-02-26T12:44:50.530135+00:00",
        "ttl_seconds": -1.0
      }
    },
    {
      "type": "Feature",
      "geometry": {
        "type": "Point",
        "coordinates": [
          3.7029,
          6.3164
        ]
      },
      "properties": {
        "obj_id": "person_32",
        "class_name": "person",
        "class_id": 0,
        "mobility": "dynamic",
        "confidence": 0.887,
        "observation_count": 246,
        "best_score": 59.845,
        "first_seen": "2026-02-26T12:45:38.329535+00:00",
        "last_seen": "2026-02-26T12:46:16.927760+00:00",
        "ttl_seconds": 60.0
      }
    },
    {
      "type": "Feature",
      "geometry": {
        "type": "Point",
        "coordinates": [
          4.1173,
          6.0373
        ]
      },
      "properties": {
        "obj_id": "person_33",
        "class_name": "person",
        "class_id": 0,
        "mobility": "dynamic",
        "confidence": 0.812,
        "observation_count": 106,
        "best_score": 5.898,
        "first_seen": "2026-02-26T12:45:45.841881+00:00",
        "last_seen": "2026-02-26T12:46:11.683117+00:00",
        "ttl_seconds": 60.0
      }
    },
    {
      "type": "Feature",
      "geometry": {
        "type": "Point",
        "coordinates": [
          5.5678,
          6.1697
        ]
      },
      "properties": {
        "obj_id": "person_34",
        "class_name": "person",
        "class_id": 0,
        "mobility": "dynamic",
        "confidence": 0.633,
        "observation_count": 10,
        "best_score": 1.153,
        "first_seen": "2026-02-26T12:45:46.755606+00:00",
        "last_seen": "2026-02-26T12:45:47.630086+00:00",
        "ttl_seconds": 60.0
      }
    }
  ]
}