{
  "type": "FeatureCollection",
  "metadata": {
    "description": "SAIM Xplorer Semantic Object Map",
    "frame": "map",
    "generated_by": "semantic_localizer",
    "last_updated": "2026-02-26T12:51:44.988213+00:00",
    "object_count": 4
  },
  "features": [
    {
      "type": "Feature",
      "geometry": {
        "type": "Point",
        "coordinates": [
          3.7271,
          -1.3821
        ]
      },
      "properties": {
        "obj_id": "bench_2",
        "class_name": "bench",
        "class_id": 13,
        "mobility": "static",
        "confidence": 0.549,
        "observation_count": 4,
        "best_score": 3.387,
        "first_seen": "2026-02-26T12:50:13.913366+00:00",
        "last_seen": "2026-02-26T12:50:13.914618+00:00",
        "ttl_seconds": -1.0
      }
    },
    {
      "type": "Feature",
      "geometry": {
        "type": "Point",
        "coordinates": [
          3.5064,
          4.2404
        ]
      },
      "properties": {
        "obj_id": "person_3",
        "class_name": "person",
        "class_id": 0,
        "mobility": "dynamic",
        "confidence": 0.641,
        "observation_count": 11,
        "best_score": 1.072,
        "first_seen": "2026-02-26T12:50:48.169174+00:00",
        "last_seen": "2026-02-26T12:51:20.422953+00:00",
        "ttl_seconds": 60.0
      }
    },
    {
      "type": "Feature",
      "geometry": {
        "type": "Point",
        "coordinates": [
          4.6995,
          5.4814
        ]
      },
      "properties": {
        "obj_id": "person_4",
        "class_name": "person",
        "class_id": 0,
        "mobility": "dynamic",
        "confidence": 0.633,
        "observation_count": 5,
        "best_score": 0.824,
        "first_seen": "2026-02-26T12:50:48.170080+00:00",
        "last_seen": "2026-02-26T12:51:20.423017+00:00",
        "ttl_seconds": 60.0
      }
    },
    {
      "type": "Feature",
      "geometry": {
        "type": "Point",
        "coordinates": [
          4.3406,
          4.9443
        ]
      },
      "properties": {
        "obj_id": "person_5",
        "class_name": "person",
        "class_id": 0,
        "mobility": "dynamic",
        "confidence": 0.724,
        "observation_count": 4,
        "best_score": 1.109,
        "first_seen": "2026-02-26T12:50:48.691571+00:00",
        "last_seen": "2026-02-26T12:50:48.692705+00:00",
        "ttl_seconds": 60.0
      }
    }
  ]
}