{
  "type": "FeatureCollection",
  "metadata": {
    "description": "SAIM Xplorer Semantic Object Map",
    "frame": "map",
    "generated_by": "semantic_localizer",
    "last_updated": "2026-02-26T13:13:54.848037+00:00",
    "object_count": 1
  },
  "features": [
    {
      "type": "Feature",
      "geometry": {
        "type": "Point",
        "coordinates": [
          7.7524,
          -0.7418
        ]
      },
      "properties": {
        "obj_id": "bottle_0",
        "class_name": "bottle",
        "class_id": 39,
        "mobility": "minor",
        "confidence": 0.8,
        "observation_count": 36,
        "best_score": 0.471,
        "first_seen": "2026-02-26T13:13:35.013199+00:00",
        "last_seen": "2026-02-26T13:13:37.060965+00:00",
        "ttl_seconds": 120.0
      }
    }
  ]
}