{
  "crs": {
    "type": "name",
    "properties": {
      "name": "urn:ogc:def:crs:EPSG::3857"
    }
  },
  "type": "FeatureCollection",
  "name": "graph",
  "features": [
    {
      "type": "Feature",
      "geometry": {
        "type": "Point",
        "coordinates": [
          1.097,
          2.588
        ]
      },
      "properties": {
        "frame": "map",
        "id": 0,
        "name": "start"
      }
    },
    {
      "type": "Feature",
      "geometry": {
        "type": "Point",
        "coordinates": [
          2.313,
          3.215
        ]
      },
      "properties": {
        "frame": "map",
        "id": 1,
        "name": "in1"
      }
    },
    {
      "type": "Feature",
      "geometry": {
        "type": "Point",
        "coordinates": [
          2.316,
          2.54
        ]
      },
      "properties": {
        "frame": "map",
        "id": 2,
        "name": "in2"
      }
    },
    {
      "type": "Feature",
      "geometry": {
        "type": "Point",
        "coordinates": [
          3.334,
          2.844
        ]
      },
      "properties": {
        "frame": "map",
        "id": 3,
        "name": "int2"
      }
    },
    {
      "type": "Feature",
      "geometry": {
        "type": "Point",
        "coordinates": [
          3.337,
          2.473
        ]
      },
      "properties": {
        "frame": "map",
        "id": 4,
        "name": "int3"
      }
    },
    {
      "type": "Feature",
      "geometry": {
        "type": "Point",
        "coordinates": [
          4.464,
          2.563
        ]
      },
      "properties": {
        "frame": "map",
        "id": 5,
        "name": "altB"
      }
    },
    {
      "type": "Feature",
      "geometry": {
        "type": "Point",
        "coordinates": [
          4.353,
          3.299
        ]
      },
      "properties": {
        "frame": "map",
        "id": 6,
        "name": "altA"
      }
    },
    {
      "type": "Feature",
      "geometry": {
        "type": "Point",
        "coordinates": [
          5.302,
          2.564
        ]
      },
      "properties": {
        "frame": "map",
        "id": 7,
        "name": "int4"
      }
    },
    {
      "type": "Feature",
      "geometry": {
        "type": "Point",
        "coordinates": [
          5.635,
          3.335
        ]
      },
      "properties": {
        "frame": "map",
        "id": 8,
        "name": "goal_old"
      }
    },
    {
      "type": "Feature",
      "geometry": {
        "type": "Point",
        "coordinates": [
          6.002,
          2.649
        ]
      },
      "properties": {
        "frame": "map",
        "id": 9,
        "name": "goal"
      }
    },
    {
      "type": "Feature",
      "geometry": {
        "type": "MultiLineString",
        "coordinates": [
          [
            [
              1.097,
              2.588
            ],
            [
              2.313,
              3.215
            ]
          ]
        ]
      },
      "properties": {
        "id": 10,
        "startid": 0,
        "endid": 1,
        "cost": 0,
        "overridable": true
      }
    },
    {
      "type": "Feature",
      "geometry": {
        "type": "MultiLineString",
        "coordinates": [
          [
            [
              2.313,
              3.215
            ],
            [
              1.097,
              2.588
            ]
          ]
        ]
      },
      "properties": {
        "id": 11,
        "startid": 1,
        "endid": 0,
        "cost": 0,
        "overridable": true
      }
    },
    {
      "type": "Feature",
      "geometry": {
        "type": "MultiLineString",
        "coordinates": [
          [
            [
              1.097,
              2.588
            ],
            [
              2.316,
              2.54
            ]
          ]
        ]
      },
      "properties": {
        "id": 12,
        "startid": 0,
        "endid": 2,
        "cost": 0,
        "overridable": true
      }
    },
    {
      "type": "Feature",
      "geometry": {
        "type": "MultiLineString",
        "coordinates": [
          [
            [
              2.316,
              2.54
            ],
            [
              1.097,
              2.588
            ]
          ]
        ]
      },
      "properties": {
        "id": 13,
        "startid": 2,
        "endid": 0,
        "cost": 0,
        "overridable": true
      }
    },
    {
      "type": "Feature",
      "geometry": {
        "type": "MultiLineString",
        "coordinates": [
          [
            [
              2.313,
              3.215
            ],
            [
              3.334,
              2.844
            ]
          ]
        ]
      },
      "properties": {
        "id": 14,
        "startid": 1,
        "endid": 3,
        "cost": 0,
        "overridable": true
      }
    },
    {
      "type": "Feature",
      "geometry": {
        "type": "MultiLineString",
        "coordinates": [
          [
            [
              3.334,
              2.844
            ],
            [
              2.313,
              3.215
            ]
          ]
        ]
      },
      "properties": {
        "id": 15,
        "startid": 3,
        "endid": 1,
        "cost": 0,
        "overridable": true
      }
    },
    {
      "type": "Feature",
      "geometry": {
        "type": "MultiLineString",
        "coordinates": [
          [
            [
              2.316,
              2.54
            ],
            [
              3.337,
              2.473
            ]
          ]
        ]
      },
      "properties": {
        "id": 16,
        "startid": 2,
        "endid": 4,
        "cost": 0,
        "overridable": true
      }
    },
    {
      "type": "Feature",
      "geometry": {
        "type": "MultiLineString",
        "coordinates": [
          [
            [
              3.337,
              2.473
            ],
            [
              2.316,
              2.54
            ]
          ]
        ]
      },
      "properties": {
        "id": 17,
        "startid": 4,
        "endid": 2,
        "cost": 0,
        "overridable": true
      }
    },
    {
      "type": "Feature",
      "geometry": {
        "type": "MultiLineString",
        "coordinates": [
          [
            [
              3.337,
              2.473
            ],
            [
              4.464,
              2.563
            ]
          ]
        ]
      },
      "properties": {
        "id": 18,
        "startid": 4,
        "endid": 5,
        "cost": 0,
        "overridable": true
      }
    },
    {
      "type": "Feature",
      "geometry": {
        "type": "MultiLineString",
        "coordinates": [
          [
            [
              4.464,
              2.563
            ],
            [
              3.337,
              2.473
            ]
          ]
        ]
      },
      "properties": {
        "id": 19,
        "startid": 5,
        "endid": 4,
        "cost": 0,
        "overridable": true
      }
    },
    {
      "type": "Feature",
      "geometry": {
        "type": "MultiLineString",
        "coordinates": [
          [
            [
              3.334,
              2.844
            ],
            [
              4.353,
              3.299
            ]
          ]
        ]
      },
      "properties": {
        "id": 20,
        "startid": 3,
        "endid": 6,
        "cost": 0,
        "overridable": true
      }
    },
    {
      "type": "Feature",
      "geometry": {
        "type": "MultiLineString",
        "coordinates": [
          [
            [
              4.353,
              3.299
            ],
            [
              3.334,
              2.844
            ]
          ]
        ]
      },
      "properties": {
        "id": 21,
        "startid": 6,
        "endid": 3,
        "cost": 0,
        "overridable": true
      }
    },
    {
      "type": "Feature",
      "geometry": {
        "type": "MultiLineString",
        "coordinates": [
          [
            [
              3.334,
              2.844
            ],
            [
              4.464,
              2.563
            ]
          ]
        ]
      },
      "properties": {
        "id": 22,
        "startid": 3,
        "endid": 5,
        "cost": 0,
        "overridable": true
      }
    },
    {
      "type": "Feature",
      "geometry": {
        "type": "MultiLineString",
        "coordinates": [
          [
            [
              4.464,
              2.563
            ],
            [
              3.334,
              2.844
            ]
          ]
        ]
      },
      "properties": {
        "id": 23,
        "startid": 5,
        "endid": 3,
        "cost": 0,
        "overridable": true
      }
    },
    {
      "type": "Feature",
      "geometry": {
        "type": "MultiLineString",
        "coordinates": [
          [
            [
              4.353,
              3.299
            ],
            [
              5.302,
              2.564
            ]
          ]
        ]
      },
      "properties": {
        "id": 24,
        "startid": 6,
        "endid": 7,
        "cost": 0,
        "overridable": true
      }
    },
    {
      "type": "Feature",
      "geometry": {
        "type": "MultiLineString",
        "coordinates": [
          [
            [
              5.302,
              2.564
            ],
            [
              4.353,
              3.299
            ]
          ]
        ]
      },
      "properties": {
        "id": 25,
        "startid": 7,
        "endid": 6,
        "cost": 0,
        "overridable": true
      }
    },
    {
      "type": "Feature",
      "geometry": {
        "type": "MultiLineString",
        "coordinates": [
          [
            [
              4.464,
              2.563
            ],
            [
              5.302,
              2.564
            ]
          ]
        ]
      },
      "properties": {
        "id": 26,
        "startid": 5,
        "endid": 7,
        "cost": 0,
        "overridable": true
      }
    },
    {
      "type": "Feature",
      "geometry": {
        "type": "MultiLineString",
        "coordinates": [
          [
            [
              5.302,
              2.564
            ],
            [
              4.464,
              2.563
            ]
          ]
        ]
      },
      "properties": {
        "id": 27,
        "startid": 7,
        "endid": 5,
        "cost": 0,
        "overridable": true
      }
    },
    {
      "type": "Feature",
      "geometry": {
        "type": "MultiLineString",
        "coordinates": [
          [
            [
              4.353,
              3.299
            ],
            [
              5.635,
              3.335
            ]
          ]
        ]
      },
      "properties": {
        "id": 28,
        "startid": 6,
        "endid": 8,
        "cost": 0,
        "overridable": true
      }
    },
    {
      "type": "Feature",
      "geometry": {
        "type": "MultiLineString",
        "coordinates": [
          [
            [
              5.635,
              3.335
            ],
            [
              4.353,
              3.299
            ]
          ]
        ]
      },
      "properties": {
        "id": 29,
        "startid": 8,
        "endid": 6,
        "cost": 0,
        "overridable": true
      }
    },
    {
      "type": "Feature",
      "geometry": {
        "type": "MultiLineString",
        "coordinates": [
          [
            [
              5.302,
              2.564
            ],
            [
              5.635,
              3.335
            ]
          ]
        ]
      },
      "properties": {
        "id": 30,
        "startid": 7,
        "endid": 8,
        "cost": 0,
        "overridable": true
      }
    },
    {
      "type": "Feature",
      "geometry": {
        "type": "MultiLineString",
        "coordinates": [
          [
            [
              5.635,
              3.335
            ],
            [
              5.302,
              2.564
            ]
          ]
        ]
      },
      "properties": {
        "id": 31,
        "startid": 8,
        "endid": 7,
        "cost": 0,
        "overridable": true
      }
    },
    {
      "type": "Feature",
      "geometry": {
        "type": "MultiLineString",
        "coordinates": [
          [
            [
              2.316,
              2.54
            ],
            [
              3.334,
              2.844
            ]
          ]
        ]
      },
      "properties": {
        "id": 32,
        "startid": 2,
        "endid": 3,
        "cost": 0,
        "overridable": true
      }
    },
    {
      "type": "Feature",
      "geometry": {
        "type": "MultiLineString",
        "coordinates": [
          [
            [
              3.334,
              2.844
            ],
            [
              2.316,
              2.54
            ]
          ]
        ]
      },
      "properties": {
        "id": 33,
        "startid": 3,
        "endid": 2,
        "cost": 0,
        "overridable": true
      }
    },
    {
      "type": "Feature",
      "geometry": {
        "type": "MultiLineString",
        "coordinates": [
          [
            [
              5.635,
              3.335
            ],
            [
              6.002,
              2.649
            ]
          ]
        ]
      },
      "properties": {
        "id": 34,
        "startid": 8,
        "endid": 9,
        "cost": 0,
        "overridable": true
      }
    },
    {
      "type": "Feature",
      "geometry": {
        "type": "MultiLineString",
        "coordinates": [
          [
            [
              6.002,
              2.649
            ],
            [
              5.635,
              3.335
            ]
          ]
        ]
      },
      "properties": {
        "id": 35,
        "startid": 9,
        "endid": 8,
        "cost": 0,
        "overridable": true
      }
    },
    {
      "type": "Feature",
      "geometry": {
        "type": "MultiLineString",
        "coordinates": [
          [
            [
              6.002,
              2.649
            ],
            [
              5.302,
              2.564
            ]
          ]
        ]
      },
      "properties": {
        "id": 36,
        "startid": 9,
        "endid": 7,
        "cost": 0,
        "overridable": true
      }
    },
    {
      "type": "Feature",
      "geometry": {
        "type": "MultiLineString",
        "coordinates": [
          [
            [
              5.302,
              2.564
            ],
            [
              6.002,
              2.649
            ]
          ]
        ]
      },
      "properties": {
        "id": 37,
        "startid": 7,
        "endid": 9,
        "cost": 0,
        "overridable": true
      }
    },
    {
      "type": "Feature",
      "properties": {
        "id": 10,
        "frame": "map",
        "name": "microwave_0",
        "metadata": {
          "type": "semantic_object",
          "class_name": "microwave",
          "class_id": 68,
          "mobility": "static",
          "confidence": 0.755,
          "observation_count": 861,
          "best_score": 17.848,
          "first_seen": "2026-02-19T15:41:13.097517+00:00",
          "last_seen": "2026-02-20T08:50:18.613242+00:00",
          "ttl_seconds": -1.0
        }
      },
      "geometry": {
        "type": "Point",
        "coordinates": [
          3.2775,
          3.4371
        ]
      }
    },
    {
      "type": "Feature",
      "properties": {
        "id": 11,
        "frame": "map",
        "name": "microwave_2",
        "metadata": {
          "type": "semantic_object",
          "class_name": "microwave",
          "class_id": 68,
          "mobility": "static",
          "confidence": 0.709,
          "observation_count": 249,
          "best_score": 1.131,
          "first_seen": "2026-02-19T15:41:15.342340+00:00",
          "last_seen": "2026-02-20T08:47:32.509320+00:00",
          "ttl_seconds": -1.0
        }
      },
      "geometry": {
        "type": "Point",
        "coordinates": [
          4.9008,
          4.0294
        ]
      }
    },
    {
      "type": "Feature",
      "properties": {
        "id": 12,
        "frame": "map",
        "name": "chair_3",
        "metadata": {
          "type": "semantic_object",
          "class_name": "chair",
          "class_id": 56,
          "mobility": "static",
          "confidence": 0.526,
          "observation_count": 40,
          "best_score": 9.45,
          "first_seen": "2026-02-19T15:41:16.114607+00:00",
          "last_seen": "2026-02-20T10:12:37.035706+00:00",
          "ttl_seconds": -1.0
        }
      },
      "geometry": {
        "type": "Point",
        "coordinates": [
          2.75,
          2.2633
        ]
      }
    },
    {
      "type": "Feature",
      "properties": {
        "id": 13,
        "frame": "map",
        "name": "tv_8",
        "metadata": {
          "type": "semantic_object",
          "class_name": "tv",
          "class_id": 62,
          "mobility": "static",
          "confidence": 0.64,
          "observation_count": 24,
          "best_score": 18.138,
          "first_seen": "2026-02-19T15:43:29.582722+00:00",
          "last_seen": "2026-02-19T15:43:33.216421+00:00",
          "ttl_seconds": -1.0
        }
      },
      "geometry": {
        "type": "Point",
        "coordinates": [
          3.0636,
          3.4902
        ]
      }
    },
    {
      "type": "Feature",
      "properties": {
        "id": 14,
        "frame": "map",
        "name": "sink_11",
        "metadata": {
          "type": "semantic_object",
          "class_name": "sink",
          "class_id": 71,
          "mobility": "static",
          "confidence": 0.632,
          "observation_count": 6,
          "best_score": 7.002,
          "first_seen": "2026-02-19T15:47:17.334314+00:00",
          "last_seen": "2026-02-19T15:47:17.339826+00:00",
          "ttl_seconds": -1.0
        }
      },
      "geometry": {
        "type": "Point",
        "coordinates": [
          6.6602,
          2.5381
        ]
      }
    },
    {
      "type": "Feature",
      "properties": {
        "id": 15,
        "frame": "map",
        "name": "microwave_12",
        "metadata": {
          "type": "semantic_object",
          "class_name": "microwave",
          "class_id": 68,
          "mobility": "static",
          "confidence": 0.794,
          "observation_count": 10,
          "best_score": 6.268,
          "first_seen": "2026-02-19T15:47:18.088678+00:00",
          "last_seen": "2026-02-19T15:47:18.850869+00:00",
          "ttl_seconds": -1.0
        }
      },
      "geometry": {
        "type": "Point",
        "coordinates": [
          6.1667,
          3.95
        ]
      }
    },
    {
      "type": "Feature",
      "properties": {
        "id": 16,
        "frame": "map",
        "name": "microwave_13",
        "metadata": {
          "type": "semantic_object",
          "class_name": "microwave",
          "class_id": 68,
          "mobility": "static",
          "confidence": 0.854,
          "observation_count": 15,
          "best_score": 28.749,
          "first_seen": "2026-02-19T15:47:25.692748+00:00",
          "last_seen": "2026-02-19T15:47:26.937776+00:00",
          "ttl_seconds": -1.0
        }
      },
      "geometry": {
        "type": "Point",
        "coordinates": [
          6.7789,
          2.8011
        ]
      }
    },
    {
      "type": "Feature",
      "properties": {
        "id": 17,
        "frame": "map",
        "name": "truck_16",
        "metadata": {
          "type": "semantic_object",
          "class_name": "truck",
          "class_id": 7,
          "mobility": "static",
          "confidence": 0.743,
          "observation_count": 42,
          "best_score": 84.225,
          "first_seen": "2026-02-19T15:48:46.143775+00:00",
          "last_seen": "2026-02-23T10:39:25.770259+00:00",
          "ttl_seconds": -1.0
        }
      },
      "geometry": {
        "type": "Point",
        "coordinates": [
          0.4976,
          2.4736
        ]
      }
    },
    {
      "type": "Feature",
      "properties": {
        "id": 18,
        "frame": "map",
        "name": "chair_18",
        "metadata": {
          "type": "semantic_object",
          "class_name": "chair",
          "class_id": 56,
          "mobility": "static",
          "confidence": 0.522,
          "observation_count": 2,
          "best_score": 0.808,
          "first_seen": "2026-02-19T16:06:50.971510+00:00",
          "last_seen": "2026-02-19T16:06:50.973982+00:00",
          "ttl_seconds": -1.0
        }
      },
      "geometry": {
        "type": "Point",
        "coordinates": [
          -4.6147,
          1.5202
        ]
      }
    },
    {
      "type": "Feature",
      "properties": {
        "id": 19,
        "frame": "map",
        "name": "chair_20",
        "metadata": {
          "type": "semantic_object",
          "class_name": "chair",
          "class_id": 56,
          "mobility": "static",
          "confidence": 0.612,
          "observation_count": 6,
          "best_score": 1.334,
          "first_seen": "2026-02-19T16:06:51.731069+00:00",
          "last_seen": "2026-02-19T16:06:51.732925+00:00",
          "ttl_seconds": -1.0
        }
      },
      "geometry": {
        "type": "Point",
        "coordinates": [
          -3.9125,
          1.9825
        ]
      }
    },
    {
      "type": "Feature",
      "properties": {
        "id": 20,
        "frame": "map",
        "name": "tv_22",
        "metadata": {
          "type": "semantic_object",
          "class_name": "tv",
          "class_id": 62,
          "mobility": "static",
          "confidence": 0.731,
          "observation_count": 7,
          "best_score": 4.205,
          "first_seen": "2026-02-19T16:06:53.810008+00:00",
          "last_seen": "2026-02-19T16:06:53.812423+00:00",
          "ttl_seconds": -1.0
        }
      },
      "geometry": {
        "type": "Point",
        "coordinates": [
          -1.3031,
          3.0909
        ]
      }
    },
    {
      "type": "Feature",
      "properties": {
        "id": 21,
        "frame": "map",
        "name": "microwave_23",
        "metadata": {
          "type": "semantic_object",
          "class_name": "microwave",
          "class_id": 68,
          "mobility": "static",
          "confidence": 0.613,
          "observation_count": 58,
          "best_score": 2.078,
          "first_seen": "2026-02-20T08:46:39.423412+00:00",
          "last_seen": "2026-02-20T08:47:13.709460+00:00",
          "ttl_seconds": -1.0
        }
      },
      "geometry": {
        "type": "Point",
        "coordinates": [
          3.2667,
          -0.4811
        ]
      }
    },
    {
      "type": "Feature",
      "properties": {
        "id": 22,
        "frame": "map",
        "name": "refrigerator_24",
        "metadata": {
          "type": "semantic_object",
          "class_name": "refrigerator",
          "class_id": 72,
          "mobility": "static",
          "confidence": 0.862,
          "observation_count": 89,
          "best_score": 8.934,
          "first_seen": "2026-02-20T08:50:55.272276+00:00",
          "last_seen": "2026-02-23T10:31:00.343134+00:00",
          "ttl_seconds": -1.0
        }
      },
      "geometry": {
        "type": "Point",
        "coordinates": [
          5.1373,
          2.1294
        ]
      }
    },
    {
      "type": "Feature",
      "properties": {
        "id": 23,
        "frame": "map",
        "name": "refrigerator_25",
        "metadata": {
          "type": "semantic_object",
          "class_name": "refrigerator",
          "class_id": 72,
          "mobility": "static",
          "confidence": 0.656,
          "observation_count": 7,
          "best_score": 6.848,
          "first_seen": "2026-02-20T08:50:58.392762+00:00",
          "last_seen": "2026-02-20T08:50:58.395564+00:00",
          "ttl_seconds": -1.0
        }
      },
      "geometry": {
        "type": "Point",
        "coordinates": [
          6.6968,
          3.2219
        ]
      }
    },
    {
      "type": "Feature",
      "properties": {
        "id": 24,
        "frame": "map",
        "name": "skateboard_49",
        "metadata": {
          "type": "semantic_object",
          "class_name": "skateboard",
          "class_id": 36,
          "mobility": "static",
          "confidence": 0.677,
          "observation_count": 2,
          "best_score": 3.04,
          "first_seen": "2026-02-23T10:34:12.796697+00:00",
          "last_seen": "2026-02-23T10:34:12.798266+00:00",
          "ttl_seconds": -1.0
        }
      },
      "geometry": {
        "type": "Point",
        "coordinates": [
          4.5118,
          2.3555
        ]
      }
    },
    {
      "type": "Feature",
      "properties": {
        "id": 25,
        "frame": "map",
        "name": "bench_51",
        "metadata": {
          "type": "semantic_object",
          "class_name": "bench",
          "class_id": 13,
          "mobility": "static",
          "confidence": 0.548,
          "observation_count": 3,
          "best_score": 2.595,
          "first_seen": "2026-02-23T10:39:07.647277+00:00",
          "last_seen": "2026-02-23T10:39:07.651633+00:00",
          "ttl_seconds": -1.0
        }
      },
      "geometry": {
        "type": "Point",
        "coordinates": [
          0.5168,
          2.3174
        ]
      }
    },
    {
      "type": "Feature",
      "properties": {
        "id": 26,
        "frame": "map",
        "name": "chair_53",
        "metadata": {
          "type": "semantic_object",
          "class_name": "chair",
          "class_id": 56,
          "mobility": "static",
          "confidence": 0.519,
          "observation_count": 1,
          "best_score": 1.867,
          "first_seen": "2026-02-23T10:39:14.557481+00:00",
          "last_seen": "2026-02-23T10:39:14.557481+00:00",
          "ttl_seconds": -1.0
        }
      },
      "geometry": {
        "type": "Point",
        "coordinates": [
          0.8171,
          1.8009
        ]
      }
    }
  ],
  "date_generated": "2026-02-23"
}