{
  "type": "FeatureCollection",
  "metadata": {
    "description": "SAIM Xplorer Semantic Object Map",
    "frame": "map",
    "generated_by": "semantic_localizer",
    "last_updated": "2026-03-10T09:43:08.105134+00:00",
    "object_count": 29
  },
  "features": [
    {
      "type": "Feature",
      "geometry": {
        "type": "Point",
        "coordinates": [
          6.869,
          -1.7288
        ]
      },
      "properties": {
        "obj_id": "potted plant_0",
        "class_name": "potted plant",
        "class_id": 58,
        "mobility": "static",
        "confidence": 0.634,
        "observation_count": 14,
        "best_score": 0.734,
        "first_seen": "2026-02-26T13:25:01.167519+00:00",
        "last_seen": "2026-02-26T13:28:00.312578+00:00",
        "ttl_seconds": -1.0
      }
    },
    {
      "type": "Feature",
      "geometry": {
        "type": "Point",
        "coordinates": [
          6.2701,
          -1.5954
        ]
      },
      "properties": {
        "obj_id": "potted plant_1",
        "class_name": "potted plant",
        "class_id": 58,
        "mobility": "static",
        "confidence": 0.596,
        "observation_count": 5,
        "best_score": 0.489,
        "first_seen": "2026-02-26T13:25:01.710096+00:00",
        "last_seen": "2026-02-26T13:25:03.156229+00:00",
        "ttl_seconds": -1.0
      }
    },
    {
      "type": "Feature",
      "geometry": {
        "type": "Point",
        "coordinates": [
          5.551,
          -1.2502
        ]
      },
      "properties": {
        "obj_id": "potted plant_2",
        "class_name": "potted plant",
        "class_id": 58,
        "mobility": "static",
        "confidence": 0.547,
        "observation_count": 4,
        "best_score": 0.785,
        "first_seen": "2026-02-26T13:25:03.154742+00:00",
        "last_seen": "2026-02-26T13:25:05.392064+00:00",
        "ttl_seconds": -1.0
      }
    },
    {
      "type": "Feature",
      "geometry": {
        "type": "Point",
        "coordinates": [
          6.2014,
          6.2109
        ]
      },
      "properties": {
        "obj_id": "chair_3",
        "class_name": "chair",
        "class_id": 56,
        "mobility": "static",
        "confidence": 0.651,
        "observation_count": 7,
        "best_score": 0.918,
        "first_seen": "2026-02-26T13:26:24.505636+00:00",
        "last_seen": "2026-02-26T13:26:24.507132+00:00",
        "ttl_seconds": -1.0
      }
    },
    {
      "type": "Feature",
      "geometry": {
        "type": "Point",
        "coordinates": [
          6.9274,
          6.5193
        ]
      },
      "properties": {
        "obj_id": "chair_4",
        "class_name": "chair",
        "class_id": 56,
        "mobility": "static",
        "confidence": 0.834,
        "observation_count": 8,
        "best_score": 1.261,
        "first_seen": "2026-02-26T13:26:24.880494+00:00",
        "last_seen": "2026-02-26T13:26:24.881536+00:00",
        "ttl_seconds": -1.0
      }
    },
    {
      "type": "Feature",
      "geometry": {
        "type": "Point",
        "coordinates": [
          8.9175,
          3.8479
        ]
      },
      "properties": {
        "obj_id": "potted plant_5",
        "class_name": "potted plant",
        "class_id": 58,
        "mobility": "static",
        "confidence": 0.515,
        "observation_count": 1,
        "best_score": 1.079,
        "first_seen": "2026-02-26T13:26:26.145575+00:00",
        "last_seen": "2026-02-26T13:26:26.145575+00:00",
        "ttl_seconds": -1.0
      }
    },
    {
      "type": "Feature",
      "geometry": {
        "type": "Point",
        "coordinates": [
          8.8382,
          4.0469
        ]
      },
      "properties": {
        "obj_id": "chair_6",
        "class_name": "chair",
        "class_id": 56,
        "mobility": "static",
        "confidence": 0.82,
        "observation_count": 9,
        "best_score": 0.749,
        "first_seen": "2026-02-26T13:26:26.544064+00:00",
        "last_seen": "2026-02-26T13:26:26.545775+00:00",
        "ttl_seconds": -1.0
      }
    },
    {
      "type": "Feature",
      "geometry": {
        "type": "Point",
        "coordinates": [
          3.7632,
          -1.3981
        ]
      },
      "properties": {
        "obj_id": "bench_7",
        "class_name": "bench",
        "class_id": 13,
        "mobility": "static",
        "confidence": 0.609,
        "observation_count": 6,
        "best_score": 4.781,
        "first_seen": "2026-02-26T13:27:55.087772+00:00",
        "last_seen": "2026-02-26T13:27:55.452347+00:00",
        "ttl_seconds": -1.0
      }
    },
    {
      "type": "Feature",
      "geometry": {
        "type": "Point",
        "coordinates": [
          4.4598,
          -1.1652
        ]
      },
      "properties": {
        "obj_id": "bench_8",
        "class_name": "bench",
        "class_id": 13,
        "mobility": "static",
        "confidence": 0.705,
        "observation_count": 16,
        "best_score": 2.24,
        "first_seen": "2026-02-26T13:28:01.392842+00:00",
        "last_seen": "2026-02-26T13:28:02.966978+00:00",
        "ttl_seconds": -1.0
      }
    },
    {
      "type": "Feature",
      "geometry": {
        "type": "Point",
        "coordinates": [
          8.7489,
          -1.054
        ]
      },
      "properties": {
        "obj_id": "bench_9",
        "class_name": "bench",
        "class_id": 13,
        "mobility": "static",
        "confidence": 0.692,
        "observation_count": 10,
        "best_score": 6.776,
        "first_seen": "2026-02-26T13:28:31.114968+00:00",
        "last_seen": "2026-02-26T13:28:32.143026+00:00",
        "ttl_seconds": -1.0
      }
    },
    {
      "type": "Feature",
      "geometry": {
        "type": "Point",
        "coordinates": [
          7.9074,
          -1.243
        ]
      },
      "properties": {
        "obj_id": "potted plant_10",
        "class_name": "potted plant",
        "class_id": 58,
        "mobility": "static",
        "confidence": 0.698,
        "observation_count": 26,
        "best_score": 11.881,
        "first_seen": "2026-02-26T13:28:32.141846+00:00",
        "last_seen": "2026-02-26T13:29:04.006761+00:00",
        "ttl_seconds": -1.0
      }
    },
    {
      "type": "Feature",
      "geometry": {
        "type": "Point",
        "coordinates": [
          7.3153,
          -2.1661
        ]
      },
      "properties": {
        "obj_id": "potted plant_11",
        "class_name": "potted plant",
        "class_id": 58,
        "mobility": "static",
        "confidence": 0.796,
        "observation_count": 43,
        "best_score": 5.587,
        "first_seen": "2026-02-26T13:29:01.073306+00:00",
        "last_seen": "2026-02-26T13:29:02.828395+00:00",
        "ttl_seconds": -1.0
      }
    },
    {
      "type": "Feature",
      "geometry": {
        "type": "Point",
        "coordinates": [
          8.9144,
          -1.0462
        ]
      },
      "properties": {
        "obj_id": "chair_12",
        "class_name": "chair",
        "class_id": 56,
        "mobility": "static",
        "confidence": 0.51,
        "observation_count": 6,
        "best_score": 6.507,
        "first_seen": "2026-02-26T13:29:32.945635+00:00",
        "last_seen": "2026-02-26T13:29:37.215863+00:00",
        "ttl_seconds": -1.0
      }
    },
    {
      "type": "Feature",
      "geometry": {
        "type": "Point",
        "coordinates": [
          2.4544,
          -0.1061
        ]
      },
      "properties": {
        "obj_id": "potted plant_13",
        "class_name": "potted plant",
        "class_id": 58,
        "mobility": "static",
        "confidence": 0.924,
        "observation_count": 10924,
        "best_score": 18.968,
        "first_seen": "2026-03-10T09:27:40.521971+00:00",
        "last_seen": "2026-03-10T09:43:06.746494+00:00",
        "ttl_seconds": -1.0
      }
    },
    {
      "type": "Feature",
      "geometry": {
        "type": "Point",
        "coordinates": [
          2.5674,
          -0.1429
        ]
      },
      "properties": {
        "obj_id": "dining table_14",
        "class_name": "dining table",
        "class_id": 60,
        "mobility": "static",
        "confidence": 0.545,
        "observation_count": 17,
        "best_score": 18.998,
        "first_seen": "2026-03-10T09:28:05.119839+00:00",
        "last_seen": "2026-03-10T09:29:11.105695+00:00",
        "ttl_seconds": -1.0
      }
    },
    {
      "type": "Feature",
      "geometry": {
        "type": "Point",
        "coordinates": [
          3.456,
          0.3839
        ]
      },
      "properties": {
        "obj_id": "dining table_15",
        "class_name": "dining table",
        "class_id": 60,
        "mobility": "static",
        "confidence": 0.675,
        "observation_count": 11,
        "best_score": 15.678,
        "first_seen": "2026-03-10T09:29:12.697539+00:00",
        "last_seen": "2026-03-10T09:40:55.374247+00:00",
        "ttl_seconds": -1.0
      }
    },
    {
      "type": "Feature",
      "geometry": {
        "type": "Point",
        "coordinates": [
          4.2745,
          0.6379
        ]
      },
      "properties": {
        "obj_id": "dining table_16",
        "class_name": "dining table",
        "class_id": 60,
        "mobility": "static",
        "confidence": 0.658,
        "observation_count": 75,
        "best_score": 15.035,
        "first_seen": "2026-03-10T09:29:13.435565+00:00",
        "last_seen": "2026-03-10T09:30:15.573482+00:00",
        "ttl_seconds": -1.0
      }
    },
    {
      "type": "Feature",
      "geometry": {
        "type": "Point",
        "coordinates": [
          8.9126,
          1.2463
        ]
      },
      "properties": {
        "obj_id": "dining table_17",
        "class_name": "dining table",
        "class_id": 60,
        "mobility": "static",
        "confidence": 0.661,
        "observation_count": 80,
        "best_score": 5.773,
        "first_seen": "2026-03-10T09:30:07.472574+00:00",
        "last_seen": "2026-03-10T09:30:15.983470+00:00",
        "ttl_seconds": -1.0
      }
    },
    {
      "type": "Feature",
      "geometry": {
        "type": "Point",
        "coordinates": [
          2.5342,
          0.0917
        ]
      },
      "properties": {
        "obj_id": "dining table_18",
        "class_name": "dining table",
        "class_id": 60,
        "mobility": "static",
        "confidence": 0.675,
        "observation_count": 6328,
        "best_score": 29.72,
        "first_seen": "2026-03-10T09:30:09.155907+00:00",
        "last_seen": "2026-03-10T09:43:06.746506+00:00",
        "ttl_seconds": -1.0
      }
    },
    {
      "type": "Feature",
      "geometry": {
        "type": "Point",
        "coordinates": [
          5.8133,
          0.895
        ]
      },
      "properties": {
        "obj_id": "dining table_19",
        "class_name": "dining table",
        "class_id": 60,
        "mobility": "static",
        "confidence": 0.634,
        "observation_count": 16,
        "best_score": 9.194,
        "first_seen": "2026-03-10T09:30:09.899996+00:00",
        "last_seen": "2026-03-10T09:30:15.176972+00:00",
        "ttl_seconds": -1.0
      }
    },
    {
      "type": "Feature",
      "geometry": {
        "type": "Point",
        "coordinates": [
          7.3504,
          1.1518
        ]
      },
      "properties": {
        "obj_id": "dining table_20",
        "class_name": "dining table",
        "class_id": 60,
        "mobility": "static",
        "confidence": 0.625,
        "observation_count": 9,
        "best_score": 6.882,
        "first_seen": "2026-03-10T09:30:13.698600+00:00",
        "last_seen": "2026-03-10T09:30:13.700933+00:00",
        "ttl_seconds": -1.0
      }
    },
    {
      "type": "Feature",
      "geometry": {
        "type": "Point",
        "coordinates": [
          2.9808,
          0.0807
        ]
      },
      "properties": {
        "obj_id": "dining table_23",
        "class_name": "dining table",
        "class_id": 60,
        "mobility": "static",
        "confidence": 0.655,
        "observation_count": 53,
        "best_score": 20.623,
        "first_seen": "2026-03-10T09:35:17.605446+00:00",
        "last_seen": "2026-03-10T09:42:36.851445+00:00",
        "ttl_seconds": -1.0
      }
    },
    {
      "type": "Feature",
      "geometry": {
        "type": "Point",
        "coordinates": [
          4.226,
          0.0435
        ]
      },
      "properties": {
        "obj_id": "dining table_27",
        "class_name": "dining table",
        "class_id": 60,
        "mobility": "static",
        "confidence": 0.621,
        "observation_count": 26,
        "best_score": 12.888,
        "first_seen": "2026-03-10T09:40:32.506814+00:00",
        "last_seen": "2026-03-10T09:42:44.190404+00:00",
        "ttl_seconds": -1.0
      }
    },
    {
      "type": "Feature",
      "geometry": {
        "type": "Point",
        "coordinates": [
          5.3719,
          0.2167
        ]
      },
      "properties": {
        "obj_id": "person_29",
        "class_name": "person",
        "class_id": 0,
        "mobility": "dynamic",
        "confidence": 0.801,
        "observation_count": 3,
        "best_score": 2.125,
        "first_seen": "2026-03-10T09:43:04.104887+00:00",
        "last_seen": "2026-03-10T09:43:04.110444+00:00",
        "ttl_seconds": 60.0
      }
    },
    {
      "type": "Feature",
      "geometry": {
        "type": "Point",
        "coordinates": [
          6.2776,
          0.1717
        ]
      },
      "properties": {
        "obj_id": "person_30",
        "class_name": "person",
        "class_id": 0,
        "mobility": "dynamic",
        "confidence": 0.789,
        "observation_count": 7,
        "best_score": 1.562,
        "first_seen": "2026-03-10T09:43:04.107006+00:00",
        "last_seen": "2026-03-10T09:43:04.110499+00:00",
        "ttl_seconds": 60.0
      }
    },
    {
      "type": "Feature",
      "geometry": {
        "type": "Point",
        "coordinates": [
          8.9846,
          0.7764
        ]
      },
      "properties": {
        "obj_id": "person_31",
        "class_name": "person",
        "class_id": 0,
        "mobility": "dynamic",
        "confidence": 0.688,
        "observation_count": 8,
        "best_score": 1.237,
        "first_seen": "2026-03-10T09:43:04.440436+00:00",
        "last_seen": "2026-03-10T09:43:04.441479+00:00",
        "ttl_seconds": 60.0
      }
    },
    {
      "type": "Feature",
      "geometry": {
        "type": "Point",
        "coordinates": [
          5.9815,
          1.0739
        ]
      },
      "properties": {
        "obj_id": "person_32",
        "class_name": "person",
        "class_id": 0,
        "mobility": "dynamic",
        "confidence": 0.875,
        "observation_count": 9,
        "best_score": 1.985,
        "first_seen": "2026-03-10T09:43:04.792094+00:00",
        "last_seen": "2026-03-10T09:43:04.793896+00:00",
        "ttl_seconds": 60.0
      }
    },
    {
      "type": "Feature",
      "geometry": {
        "type": "Point",
        "coordinates": [
          8.9885,
          1.7702
        ]
      },
      "properties": {
        "obj_id": "person_33",
        "class_name": "person",
        "class_id": 0,
        "mobility": "dynamic",
        "confidence": 0.897,
        "observation_count": 9,
        "best_score": 1.584,
        "first_seen": "2026-03-10T09:43:05.535496+00:00",
        "last_seen": "2026-03-10T09:43:05.536781+00:00",
        "ttl_seconds": 60.0
      }
    },
    {
      "type": "Feature",
      "geometry": {
        "type": "Point",
        "coordinates": [
          4.0177,
          -1.1479
        ]
      },
      "properties": {
        "obj_id": "person_34",
        "class_name": "person",
        "class_id": 0,
        "mobility": "dynamic",
        "confidence": 0.508,
        "observation_count": 2,
        "best_score": 0.662,
        "first_seen": "2026-03-10T09:43:05.930661+00:00",
        "last_seen": "2026-03-10T09:43:05.931596+00:00",
        "ttl_seconds": 60.0
      }
    }
  ]
}