{
  "type": "FeatureCollection",
  "metadata": {
    "description": "SAIM Xplorer Semantic Object Map",
    "frame": "map",
    "generated_by": "semantic_localizer",
    "last_updated": "2026-03-18T16:13:22.364426+00:00",
    "object_count": 34
  },
  "features": [
    {
      "type": "Feature",
      "geometry": {
        "type": "Point",
        "coordinates": [
          1.9456,
          0.0785
        ]
      },
      "properties": {
        "obj_id": "potted plant_0",
        "class_name": "potted plant",
        "class_id": 58,
        "mobility": "static",
        "confidence": 0.94,
        "observation_count": 8380,
        "best_score": 43.917,
        "first_seen": "2026-03-16T11:06:32.686236+00:00",
        "last_seen": "2026-03-16T11:24:17.079836+00:00",
        "ttl_seconds": -1.0
      }
    },
    {
      "type": "Feature",
      "geometry": {
        "type": "Point",
        "coordinates": [
          8.5466,
          0.816
        ]
      },
      "properties": {
        "obj_id": "dining table_1",
        "class_name": "dining table",
        "class_id": 60,
        "mobility": "static",
        "confidence": 0.639,
        "observation_count": 36,
        "best_score": 5.092,
        "first_seen": "2026-03-16T11:06:32.687259+00:00",
        "last_seen": "2026-03-16T11:06:51.310524+00:00",
        "ttl_seconds": -1.0
      }
    },
    {
      "type": "Feature",
      "geometry": {
        "type": "Point",
        "coordinates": [
          7.8896,
          0.8946
        ]
      },
      "properties": {
        "obj_id": "dining table_2",
        "class_name": "dining table",
        "class_id": 60,
        "mobility": "static",
        "confidence": 0.591,
        "observation_count": 8,
        "best_score": 5.057,
        "first_seen": "2026-03-16T11:06:42.995214+00:00",
        "last_seen": "2026-03-16T11:06:42.996588+00:00",
        "ttl_seconds": -1.0
      }
    },
    {
      "type": "Feature",
      "geometry": {
        "type": "Point",
        "coordinates": [
          8.7114,
          1.7267
        ]
      },
      "properties": {
        "obj_id": "dining table_3",
        "class_name": "dining table",
        "class_id": 60,
        "mobility": "static",
        "confidence": 0.59,
        "observation_count": 8,
        "best_score": 4.648,
        "first_seen": "2026-03-16T11:06:45.540931+00:00",
        "last_seen": "2026-03-16T11:06:45.543382+00:00",
        "ttl_seconds": -1.0
      }
    },
    {
      "type": "Feature",
      "geometry": {
        "type": "Point",
        "coordinates": [
          2.1787,
          0.0364
        ]
      },
      "properties": {
        "obj_id": "dining table_4",
        "class_name": "dining table",
        "class_id": 60,
        "mobility": "static",
        "confidence": 0.795,
        "observation_count": 7256,
        "best_score": 47.073,
        "first_seen": "2026-03-16T11:06:45.893557+00:00",
        "last_seen": "2026-03-16T11:23:08.932506+00:00",
        "ttl_seconds": -1.0
      }
    },
    {
      "type": "Feature",
      "geometry": {
        "type": "Point",
        "coordinates": [
          8.6652,
          -1.9603
        ]
      },
      "properties": {
        "obj_id": "potted plant_5",
        "class_name": "potted plant",
        "class_id": 58,
        "mobility": "static",
        "confidence": 0.901,
        "observation_count": 10,
        "best_score": 1.735,
        "first_seen": "2026-03-16T11:06:50.948374+00:00",
        "last_seen": "2026-03-16T11:06:50.949793+00:00",
        "ttl_seconds": -1.0
      }
    },
    {
      "type": "Feature",
      "geometry": {
        "type": "Point",
        "coordinates": [
          8.7835,
          2.5601
        ]
      },
      "properties": {
        "obj_id": "potted plant_6",
        "class_name": "potted plant",
        "class_id": 58,
        "mobility": "static",
        "confidence": 0.886,
        "observation_count": 9,
        "best_score": 3.929,
        "first_seen": "2026-03-16T11:06:55.361465+00:00",
        "last_seen": "2026-03-16T11:06:55.362585+00:00",
        "ttl_seconds": -1.0
      }
    },
    {
      "type": "Feature",
      "geometry": {
        "type": "Point",
        "coordinates": [
          7.9872,
          4.0962
        ]
      },
      "properties": {
        "obj_id": "dining table_7",
        "class_name": "dining table",
        "class_id": 60,
        "mobility": "static",
        "confidence": 0.564,
        "observation_count": 5,
        "best_score": 5.131,
        "first_seen": "2026-03-16T11:06:55.362593+00:00",
        "last_seen": "2026-03-16T11:06:55.363395+00:00",
        "ttl_seconds": -1.0
      }
    },
    {
      "type": "Feature",
      "geometry": {
        "type": "Point",
        "coordinates": [
          7.7093,
          -1.5124
        ]
      },
      "properties": {
        "obj_id": "potted plant_8",
        "class_name": "potted plant",
        "class_id": 58,
        "mobility": "static",
        "confidence": 0.621,
        "observation_count": 31,
        "best_score": 2.88,
        "first_seen": "2026-03-16T11:07:00.964593+00:00",
        "last_seen": "2026-03-16T11:09:09.882742+00:00",
        "ttl_seconds": -1.0
      }
    },
    {
      "type": "Feature",
      "geometry": {
        "type": "Point",
        "coordinates": [
          -0.4536,
          1.1411
        ]
      },
      "properties": {
        "obj_id": "potted plant_9",
        "class_name": "potted plant",
        "class_id": 58,
        "mobility": "static",
        "confidence": 0.773,
        "observation_count": 6,
        "best_score": 0.771,
        "first_seen": "2026-03-16T11:07:35.719102+00:00",
        "last_seen": "2026-03-16T11:07:35.720485+00:00",
        "ttl_seconds": -1.0
      }
    },
    {
      "type": "Feature",
      "geometry": {
        "type": "Point",
        "coordinates": [
          3.4385,
          -2.1588
        ]
      },
      "properties": {
        "obj_id": "potted plant_10",
        "class_name": "potted plant",
        "class_id": 58,
        "mobility": "static",
        "confidence": 0.902,
        "observation_count": 586,
        "best_score": 7.886,
        "first_seen": "2026-03-16T11:08:05.360223+00:00",
        "last_seen": "2026-03-16T11:25:29.845058+00:00",
        "ttl_seconds": -1.0
      }
    },
    {
      "type": "Feature",
      "geometry": {
        "type": "Point",
        "coordinates": [
          2.9784,
          -1.6561
        ]
      },
      "properties": {
        "obj_id": "chair_11",
        "class_name": "chair",
        "class_id": 56,
        "mobility": "static",
        "confidence": 0.769,
        "observation_count": 70,
        "best_score": 11.232,
        "first_seen": "2026-03-16T11:08:05.763001+00:00",
        "last_seen": "2026-03-16T11:24:15.108196+00:00",
        "ttl_seconds": -1.0
      }
    },
    {
      "type": "Feature",
      "geometry": {
        "type": "Point",
        "coordinates": [
          5.2298,
          2.6102
        ]
      },
      "properties": {
        "obj_id": "dining table_12",
        "class_name": "dining table",
        "class_id": 60,
        "mobility": "static",
        "confidence": 0.657,
        "observation_count": 10,
        "best_score": 9.187,
        "first_seen": "2026-03-16T11:08:09.999429+00:00",
        "last_seen": "2026-03-16T11:08:10.004348+00:00",
        "ttl_seconds": -1.0
      }
    },
    {
      "type": "Feature",
      "geometry": {
        "type": "Point",
        "coordinates": [
          2.329,
          -1.957
        ]
      },
      "properties": {
        "obj_id": "chair_15",
        "class_name": "chair",
        "class_id": 56,
        "mobility": "static",
        "confidence": 0.718,
        "observation_count": 35,
        "best_score": 9.388,
        "first_seen": "2026-03-16T11:08:20.140797+00:00",
        "last_seen": "2026-03-16T11:08:40.449146+00:00",
        "ttl_seconds": -1.0
      }
    },
    {
      "type": "Feature",
      "geometry": {
        "type": "Point",
        "coordinates": [
          3.4888,
          -1.6566
        ]
      },
      "properties": {
        "obj_id": "potted plant_16",
        "class_name": "potted plant",
        "class_id": 58,
        "mobility": "static",
        "confidence": 0.866,
        "observation_count": 6535,
        "best_score": 4.943,
        "first_seen": "2026-03-16T11:08:22.815516+00:00",
        "last_seen": "2026-03-16T11:24:38.666135+00:00",
        "ttl_seconds": -1.0
      }
    },
    {
      "type": "Feature",
      "geometry": {
        "type": "Point",
        "coordinates": [
          7.9094,
          -1.0491
        ]
      },
      "properties": {
        "obj_id": "potted plant_17",
        "class_name": "potted plant",
        "class_id": 58,
        "mobility": "static",
        "confidence": 0.812,
        "observation_count": 10,
        "best_score": 3.107,
        "first_seen": "2026-03-16T11:08:28.559590+00:00",
        "last_seen": "2026-03-16T11:08:28.560630+00:00",
        "ttl_seconds": -1.0
      }
    },
    {
      "type": "Feature",
      "geometry": {
        "type": "Point",
        "coordinates": [
          8.7555,
          -1.3814
        ]
      },
      "properties": {
        "obj_id": "potted plant_18",
        "class_name": "potted plant",
        "class_id": 58,
        "mobility": "static",
        "confidence": 0.636,
        "observation_count": 8,
        "best_score": 1.887,
        "first_seen": "2026-03-16T11:08:28.895155+00:00",
        "last_seen": "2026-03-16T11:08:28.896287+00:00",
        "ttl_seconds": -1.0
      }
    },
    {
      "type": "Feature",
      "geometry": {
        "type": "Point",
        "coordinates": [
          8.9581,
          6.0404
        ]
      },
      "properties": {
        "obj_id": "potted plant_19",
        "class_name": "potted plant",
        "class_id": 58,
        "mobility": "static",
        "confidence": 0.838,
        "observation_count": 72,
        "best_score": 0.741,
        "first_seen": "2026-03-16T11:09:13.033749+00:00",
        "last_seen": "2026-03-16T11:09:17.287460+00:00",
        "ttl_seconds": -1.0
      }
    },
    {
      "type": "Feature",
      "geometry": {
        "type": "Point",
        "coordinates": [
          8.355,
          4.9446
        ]
      },
      "properties": {
        "obj_id": "laptop_20",
        "class_name": "laptop",
        "class_id": 63,
        "mobility": "static",
        "confidence": 0.516,
        "observation_count": 1,
        "best_score": 3.148,
        "first_seen": "2026-03-16T11:09:15.711449+00:00",
        "last_seen": "2026-03-16T11:09:15.711449+00:00",
        "ttl_seconds": -1.0
      }
    },
    {
      "type": "Feature",
      "geometry": {
        "type": "Point",
        "coordinates": [
          8.5824,
          -1.1073
        ]
      },
      "properties": {
        "obj_id": "bench_21",
        "class_name": "bench",
        "class_id": 13,
        "mobility": "static",
        "confidence": 0.586,
        "observation_count": 5,
        "best_score": 6.659,
        "first_seen": "2026-03-16T11:09:20.728923+00:00",
        "last_seen": "2026-03-16T11:09:22.188352+00:00",
        "ttl_seconds": -1.0
      }
    },
    {
      "type": "Feature",
      "geometry": {
        "type": "Point",
        "coordinates": [
          -0.4748,
          0.4431
        ]
      },
      "properties": {
        "obj_id": "potted plant_22",
        "class_name": "potted plant",
        "class_id": 58,
        "mobility": "static",
        "confidence": 0.648,
        "observation_count": 3,
        "best_score": 0.533,
        "first_seen": "2026-03-16T11:09:44.716138+00:00",
        "last_seen": "2026-03-16T11:09:44.717789+00:00",
        "ttl_seconds": -1.0
      }
    },
    {
      "type": "Feature",
      "geometry": {
        "type": "Point",
        "coordinates": [
          3.9787,
          0.4194
        ]
      },
      "properties": {
        "obj_id": "dining table_23",
        "class_name": "dining table",
        "class_id": 60,
        "mobility": "static",
        "confidence": 0.773,
        "observation_count": 8,
        "best_score": 15.669,
        "first_seen": "2026-03-16T11:23:09.284821+00:00",
        "last_seen": "2026-03-16T11:23:09.285989+00:00",
        "ttl_seconds": -1.0
      }
    },
    {
      "type": "Feature",
      "geometry": {
        "type": "Point",
        "coordinates": [
          3.2781,
          6.6899
        ]
      },
      "properties": {
        "obj_id": "potted plant_24",
        "class_name": "potted plant",
        "class_id": 58,
        "mobility": "static",
        "confidence": 0.5,
        "observation_count": 1,
        "best_score": 1.423,
        "first_seen": "2026-03-16T11:23:37.947790+00:00",
        "last_seen": "2026-03-16T11:23:37.947790+00:00",
        "ttl_seconds": -1.0
      }
    },
    {
      "type": "Feature",
      "geometry": {
        "type": "Point",
        "coordinates": [
          2.9132,
          -1.6638
        ]
      },
      "properties": {
        "obj_id": "potted plant_25",
        "class_name": "potted plant",
        "class_id": 58,
        "mobility": "static",
        "confidence": 0.76,
        "observation_count": 97,
        "best_score": 1.47,
        "first_seen": "2026-03-16T11:23:57.680855+00:00",
        "last_seen": "2026-03-16T11:24:17.079799+00:00",
        "ttl_seconds": -1.0
      }
    },
    {
      "type": "Feature",
      "geometry": {
        "type": "Point",
        "coordinates": [
          1.0303,
          -1.6253
        ]
      },
      "properties": {
        "obj_id": "potted plant_26",
        "class_name": "potted plant",
        "class_id": 58,
        "mobility": "static",
        "confidence": 0.729,
        "observation_count": 9,
        "best_score": 1.111,
        "first_seen": "2026-03-16T11:24:03.390262+00:00",
        "last_seen": "2026-03-16T11:24:03.393632+00:00",
        "ttl_seconds": -1.0
      }
    },
    {
      "type": "Feature",
      "geometry": {
        "type": "Point",
        "coordinates": [
          2.3105,
          -1.8681
        ]
      },
      "properties": {
        "obj_id": "potted plant_27",
        "class_name": "potted plant",
        "class_id": 58,
        "mobility": "static",
        "confidence": 0.71,
        "observation_count": 7,
        "best_score": 1.342,
        "first_seen": "2026-03-16T11:24:03.392130+00:00",
        "last_seen": "2026-03-16T11:24:03.393581+00:00",
        "ttl_seconds": -1.0
      }
    },
    {
      "type": "Feature",
      "geometry": {
        "type": "Point",
        "coordinates": [
          0.1767,
          -1.5948
        ]
      },
      "properties": {
        "obj_id": "chair_28",
        "class_name": "chair",
        "class_id": 56,
        "mobility": "static",
        "confidence": 0.598,
        "observation_count": 12,
        "best_score": 2.887,
        "first_seen": "2026-03-16T11:24:08.014735+00:00",
        "last_seen": "2026-03-16T11:24:15.108206+00:00",
        "ttl_seconds": -1.0
      }
    },
    {
      "type": "Feature",
      "geometry": {
        "type": "Point",
        "coordinates": [
          2.4088,
          -0.4398
        ]
      },
      "properties": {
        "obj_id": "potted plant_29",
        "class_name": "potted plant",
        "class_id": 58,
        "mobility": "static",
        "confidence": 0.771,
        "observation_count": 192,
        "best_score": 1.469,
        "first_seen": "2026-03-16T11:24:28.424900+00:00",
        "last_seen": "2026-03-16T11:25:29.845072+00:00",
        "ttl_seconds": -1.0
      }
    },
    {
      "type": "Feature",
      "geometry": {
        "type": "Point",
        "coordinates": [
          3.7609,
          -1.51
        ]
      },
      "properties": {
        "obj_id": "chair_30",
        "class_name": "chair",
        "class_id": 56,
        "mobility": "static",
        "confidence": 0.643,
        "observation_count": 44,
        "best_score": 4.292,
        "first_seen": "2026-03-16T11:24:28.426750+00:00",
        "last_seen": "2026-03-16T11:24:38.666117+00:00",
        "ttl_seconds": -1.0
      }
    },
    {
      "type": "Feature",
      "geometry": {
        "type": "Point",
        "coordinates": [
          1.0696,
          -1.9108
        ]
      },
      "properties": {
        "obj_id": "chair_31",
        "class_name": "chair",
        "class_id": 56,
        "mobility": "static",
        "confidence": 0.583,
        "observation_count": 22,
        "best_score": 2.697,
        "first_seen": "2026-03-16T11:24:28.428562+00:00",
        "last_seen": "2026-03-16T11:24:38.666126+00:00",
        "ttl_seconds": -1.0
      }
    },
    {
      "type": "Feature",
      "geometry": {
        "type": "Point",
        "coordinates": [
          4.2634,
          -1.2129
        ]
      },
      "properties": {
        "obj_id": "bench_32",
        "class_name": "bench",
        "class_id": 13,
        "mobility": "static",
        "confidence": 0.749,
        "observation_count": 1050,
        "best_score": 4.694,
        "first_seen": "2026-03-18T15:37:14.364624+00:00",
        "last_seen": "2026-03-18T16:13:18.602289+00:00",
        "ttl_seconds": -1.0
      }
    },
    {
      "type": "Feature",
      "geometry": {
        "type": "Point",
        "coordinates": [
          6.6396,
          -1.9982
        ]
      },
      "properties": {
        "obj_id": "potted plant_33",
        "class_name": "potted plant",
        "class_id": 58,
        "mobility": "static",
        "confidence": 0.555,
        "observation_count": 24,
        "best_score": 0.479,
        "first_seen": "2026-03-18T15:42:28.752535+00:00",
        "last_seen": "2026-03-18T16:03:53.008748+00:00",
        "ttl_seconds": -1.0
      }
    },
    {
      "type": "Feature",
      "geometry": {
        "type": "Point",
        "coordinates": [
          3.8072,
          -1.2543
        ]
      },
      "properties": {
        "obj_id": "bench_34",
        "class_name": "bench",
        "class_id": 13,
        "mobility": "static",
        "confidence": 0.625,
        "observation_count": 702,
        "best_score": 3.119,
        "first_seen": "2026-03-18T15:54:56.300788+00:00",
        "last_seen": "2026-03-18T16:03:35.447267+00:00",
        "ttl_seconds": -1.0
      }
    },
    {
      "type": "Feature",
      "geometry": {
        "type": "Point",
        "coordinates": [
          4.8761,
          -1.4609
        ]
      },
      "properties": {
        "obj_id": "bench_35",
        "class_name": "bench",
        "class_id": 13,
        "mobility": "static",
        "confidence": 0.638,
        "observation_count": 5,
        "best_score": 0.331,
        "first_seen": "2026-03-18T16:06:25.510485+00:00",
        "last_seen": "2026-03-18T16:06:25.511560+00:00",
        "ttl_seconds": -1.0
      }
    }
  ]
}