{
  "type": "FeatureCollection",
  "metadata": {
    "description": "SAIM Xplorer Semantic Object Map",
    "frame": "map",
    "generated_by": "semantic_localizer",
    "last_updated": "2026-03-03T09:22:25.579725+00:00",
    "object_count": 8
  },
  "features": [
    {
      "type": "Feature",
      "geometry": {
        "type": "Point",
        "coordinates": [
          8.9792,
          -0.1688
        ]
      },
      "properties": {
        "obj_id": "bench_0",
        "class_name": "bench",
        "class_id": 13,
        "mobility": "static",
        "confidence": 0.701,
        "observation_count": 7,
        "best_score": 5.543,
        "first_seen": "2026-02-26T13:39:23.351076+00:00",
        "last_seen": "2026-02-26T13:39:23.352200+00:00",
        "ttl_seconds": -1.0
      }
    },
    {
      "type": "Feature",
      "geometry": {
        "type": "Point",
        "coordinates": [
          2.6487,
          -0.3273
        ]
      },
      "properties": {
        "obj_id": "tv_6",
        "class_name": "tv",
        "class_id": 62,
        "mobility": "static",
        "confidence": 0.748,
        "observation_count": 1432,
        "best_score": 5.562,
        "first_seen": "2026-02-26T13:51:36.259234+00:00",
        "last_seen": "2026-02-26T13:54:24.757352+00:00",
        "ttl_seconds": -1.0
      }
    },
    {
      "type": "Feature",
      "geometry": {
        "type": "Point",
        "coordinates": [
          4.0077,
          -1.2312
        ]
      },
      "properties": {
        "obj_id": "person_9",
        "class_name": "person",
        "class_id": 0,
        "mobility": "dynamic",
        "confidence": 0.849,
        "observation_count": 4238,
        "best_score": 4.223,
        "first_seen": "2026-03-03T09:19:01.473997+00:00",
        "last_seen": "2026-03-03T09:22:25.222754+00:00",
        "ttl_seconds": 60.0
      }
    },
    {
      "type": "Feature",
      "geometry": {
        "type": "Point",
        "coordinates": [
          7.3643,
          -1.9683
        ]
      },
      "properties": {
        "obj_id": "potted plant_15",
        "class_name": "potted plant",
        "class_id": 58,
        "mobility": "static",
        "confidence": 0.57,
        "observation_count": 62,
        "best_score": 0.884,
        "first_seen": "2026-03-03T09:19:37.564024+00:00",
        "last_seen": "2026-03-03T09:21:00.539414+00:00",
        "ttl_seconds": -1.0
      }
    },
    {
      "type": "Feature",
      "geometry": {
        "type": "Point",
        "coordinates": [
          4.9959,
          -1.2593
        ]
      },
      "properties": {
        "obj_id": "potted plant_16",
        "class_name": "potted plant",
        "class_id": 58,
        "mobility": "static",
        "confidence": 0.562,
        "observation_count": 11,
        "best_score": 1.297,
        "first_seen": "2026-03-03T09:20:42.247249+00:00",
        "last_seen": "2026-03-03T09:21:00.151382+00:00",
        "ttl_seconds": -1.0
      }
    },
    {
      "type": "Feature",
      "geometry": {
        "type": "Point",
        "coordinates": [
          2.4183,
          0.2571
        ]
      },
      "properties": {
        "obj_id": "person_18",
        "class_name": "person",
        "class_id": 0,
        "mobility": "dynamic",
        "confidence": 0.916,
        "observation_count": 48,
        "best_score": 21.022,
        "first_seen": "2026-03-03T09:21:27.766010+00:00",
        "last_seen": "2026-03-03T09:21:29.396470+00:00",
        "ttl_seconds": 60.0
      }
    },
    {
      "type": "Feature",
      "geometry": {
        "type": "Point",
        "coordinates": [
          1.9626,
          -0.0414
        ]
      },
      "properties": {
        "obj_id": "bottle_19",
        "class_name": "bottle",
        "class_id": 39,
        "mobility": "minor",
        "confidence": 0.884,
        "observation_count": 1414,
        "best_score": 8.475,
        "first_seen": "2026-03-03T09:21:28.175393+00:00",
        "last_seen": "2026-03-03T09:22:25.222741+00:00",
        "ttl_seconds": 120.0
      }
    },
    {
      "type": "Feature",
      "geometry": {
        "type": "Point",
        "coordinates": [
          7.614,
          -0.2389
        ]
      },
      "properties": {
        "obj_id": "dining table_20",
        "class_name": "dining table",
        "class_id": 60,
        "mobility": "static",
        "confidence": 0.501,
        "observation_count": 1,
        "best_score": 4.86,
        "first_seen": "2026-03-03T09:22:18.321091+00:00",
        "last_seen": "2026-03-03T09:22:18.321091+00:00",
        "ttl_seconds": -1.0
      }
    }
  ]
}