{
  "type": "FeatureCollection",
  "metadata": {
    "description": "SAIM Xplorer Semantic Object Map",
    "frame": "map",
    "generated_by": "semantic_localizer",
    "last_updated": "2026-02-26T12:53:10.260524+00:00",
    "object_count": 18
  },
  "features": [
    {
      "type": "Feature",
      "geometry": {
        "type": "Point",
        "coordinates": [
          5.3747,
          5.1722
        ]
      },
      "properties": {
        "obj_id": "potted plant_9",
        "class_name": "potted plant",
        "class_id": 58,
        "mobility": "static",
        "confidence": 0.722,
        "observation_count": 5,
        "best_score": 1.301,
        "first_seen": "2026-02-26T12:49:35.080339+00:00",
        "last_seen": "2026-02-26T12:49:35.082212+00:00",
        "ttl_seconds": -1.0
      }
    },
    {
      "type": "Feature",
      "geometry": {
        "type": "Point",
        "coordinates": [
          4.5431,
          3.6197
        ]
      },
      "properties": {
        "obj_id": "potted plant_10",
        "class_name": "potted plant",
        "class_id": 58,
        "mobility": "static",
        "confidence": 0.689,
        "observation_count": 15,
        "best_score": 1.636,
        "first_seen": "2026-02-26T12:49:35.081336+00:00",
        "last_seen": "2026-02-26T12:49:35.506121+00:00",
        "ttl_seconds": -1.0
      }
    },
    {
      "type": "Feature",
      "geometry": {
        "type": "Point",
        "coordinates": [
          6.7856,
          6.6101
        ]
      },
      "properties": {
        "obj_id": "chair_11",
        "class_name": "chair",
        "class_id": 56,
        "mobility": "static",
        "confidence": 0.508,
        "observation_count": 2,
        "best_score": 2.115,
        "first_seen": "2026-02-26T12:49:35.082242+00:00",
        "last_seen": "2026-02-26T12:49:35.082942+00:00",
        "ttl_seconds": -1.0
      }
    },
    {
      "type": "Feature",
      "geometry": {
        "type": "Point",
        "coordinates": [
          4.6652,
          4.4932
        ]
      },
      "properties": {
        "obj_id": "potted plant_12",
        "class_name": "potted plant",
        "class_id": 58,
        "mobility": "static",
        "confidence": 0.695,
        "observation_count": 6,
        "best_score": 1.198,
        "first_seen": "2026-02-26T12:49:35.504011+00:00",
        "last_seen": "2026-02-26T12:49:35.506138+00:00",
        "ttl_seconds": -1.0
      }
    },
    {
      "type": "Feature",
      "geometry": {
        "type": "Point",
        "coordinates": [
          4.013,
          3.3078
        ]
      },
      "properties": {
        "obj_id": "potted plant_13",
        "class_name": "potted plant",
        "class_id": 58,
        "mobility": "static",
        "confidence": 0.604,
        "observation_count": 2,
        "best_score": 0.697,
        "first_seen": "2026-02-26T12:49:36.141724+00:00",
        "last_seen": "2026-02-26T12:49:36.143543+00:00",
        "ttl_seconds": -1.0
      }
    },
    {
      "type": "Feature",
      "geometry": {
        "type": "Point",
        "coordinates": [
          5.2788,
          3.5363
        ]
      },
      "properties": {
        "obj_id": "chair_17",
        "class_name": "chair",
        "class_id": 56,
        "mobility": "static",
        "confidence": 0.502,
        "observation_count": 1,
        "best_score": 2.712,
        "first_seen": "2026-02-26T12:50:57.246997+00:00",
        "last_seen": "2026-02-26T12:50:57.246997+00:00",
        "ttl_seconds": -1.0
      }
    },
    {
      "type": "Feature",
      "geometry": {
        "type": "Point",
        "coordinates": [
          8.8014,
          3.5788
        ]
      },
      "properties": {
        "obj_id": "chair_21",
        "class_name": "chair",
        "class_id": 56,
        "mobility": "static",
        "confidence": 0.528,
        "observation_count": 1,
        "best_score": 1.665,
        "first_seen": "2026-02-26T12:51:26.326799+00:00",
        "last_seen": "2026-02-26T12:51:26.326799+00:00",
        "ttl_seconds": -1.0
      }
    },
    {
      "type": "Feature",
      "geometry": {
        "type": "Point",
        "coordinates": [
          5.3988,
          -1.2918
        ]
      },
      "properties": {
        "obj_id": "potted plant_24",
        "class_name": "potted plant",
        "class_id": 58,
        "mobility": "static",
        "confidence": 0.564,
        "observation_count": 5,
        "best_score": 1.226,
        "first_seen": "2026-02-26T12:51:38.656074+00:00",
        "last_seen": "2026-02-26T12:51:38.657244+00:00",
        "ttl_seconds": -1.0
      }
    },
    {
      "type": "Feature",
      "geometry": {
        "type": "Point",
        "coordinates": [
          6.7676,
          -1.5983
        ]
      },
      "properties": {
        "obj_id": "potted plant_25",
        "class_name": "potted plant",
        "class_id": 58,
        "mobility": "static",
        "confidence": 0.621,
        "observation_count": 9,
        "best_score": 1.206,
        "first_seen": "2026-02-26T12:51:40.054834+00:00",
        "last_seen": "2026-02-26T12:51:43.655249+00:00",
        "ttl_seconds": -1.0
      }
    },
    {
      "type": "Feature",
      "geometry": {
        "type": "Point",
        "coordinates": [
          7.7472,
          -1.1755
        ]
      },
      "properties": {
        "obj_id": "potted plant_26",
        "class_name": "potted plant",
        "class_id": 58,
        "mobility": "static",
        "confidence": 0.513,
        "observation_count": 1,
        "best_score": 0.734,
        "first_seen": "2026-02-26T12:51:44.904666+00:00",
        "last_seen": "2026-02-26T12:51:44.904666+00:00",
        "ttl_seconds": -1.0
      }
    },
    {
      "type": "Feature",
      "geometry": {
        "type": "Point",
        "coordinates": [
          9.0378,
          0.1014
        ]
      },
      "properties": {
        "obj_id": "potted plant_27",
        "class_name": "potted plant",
        "class_id": 58,
        "mobility": "static",
        "confidence": 0.632,
        "observation_count": 9,
        "best_score": 0.94,
        "first_seen": "2026-02-26T12:51:49.241089+00:00",
        "last_seen": "2026-02-26T12:51:50.191528+00:00",
        "ttl_seconds": -1.0
      }
    },
    {
      "type": "Feature",
      "geometry": {
        "type": "Point",
        "coordinates": [
          9.0076,
          0.6979
        ]
      },
      "properties": {
        "obj_id": "bench_28",
        "class_name": "bench",
        "class_id": 13,
        "mobility": "static",
        "confidence": 0.535,
        "observation_count": 3,
        "best_score": 2.856,
        "first_seen": "2026-02-26T12:51:52.708891+00:00",
        "last_seen": "2026-02-26T12:51:54.863070+00:00",
        "ttl_seconds": -1.0
      }
    },
    {
      "type": "Feature",
      "geometry": {
        "type": "Point",
        "coordinates": [
          -0.396,
          0.214
        ]
      },
      "properties": {
        "obj_id": "potted plant_29",
        "class_name": "potted plant",
        "class_id": 58,
        "mobility": "static",
        "confidence": 0.615,
        "observation_count": 5,
        "best_score": 0.854,
        "first_seen": "2026-02-26T12:52:30.527746+00:00",
        "last_seen": "2026-02-26T12:52:30.528847+00:00",
        "ttl_seconds": -1.0
      }
    },
    {
      "type": "Feature",
      "geometry": {
        "type": "Point",
        "coordinates": [
          0.0987,
          -1.8684
        ]
      },
      "properties": {
        "obj_id": "bottle_30",
        "class_name": "bottle",
        "class_id": 39,
        "mobility": "minor",
        "confidence": 0.751,
        "observation_count": 25,
        "best_score": 0.698,
        "first_seen": "2026-02-26T12:52:34.952635+00:00",
        "last_seen": "2026-02-26T12:52:43.184719+00:00",
        "ttl_seconds": 120.0
      }
    },
    {
      "type": "Feature",
      "geometry": {
        "type": "Point",
        "coordinates": [
          2.9351,
          -0.3821
        ]
      },
      "properties": {
        "obj_id": "bottle_31",
        "class_name": "bottle",
        "class_id": 39,
        "mobility": "minor",
        "confidence": 0.763,
        "observation_count": 12,
        "best_score": 3.914,
        "first_seen": "2026-02-26T12:52:35.938661+00:00",
        "last_seen": "2026-02-26T12:52:44.486073+00:00",
        "ttl_seconds": 120.0
      }
    },
    {
      "type": "Feature",
      "geometry": {
        "type": "Point",
        "coordinates": [
          0.8441,
          -1.5566
        ]
      },
      "properties": {
        "obj_id": "bottle_32",
        "class_name": "bottle",
        "class_id": 39,
        "mobility": "minor",
        "confidence": 0.599,
        "observation_count": 8,
        "best_score": 0.566,
        "first_seen": "2026-02-26T12:52:38.727370+00:00",
        "last_seen": "2026-02-26T12:52:38.728718+00:00",
        "ttl_seconds": 120.0
      }
    },
    {
      "type": "Feature",
      "geometry": {
        "type": "Point",
        "coordinates": [
          -0.262,
          -0.8334
        ]
      },
      "properties": {
        "obj_id": "bottle_33",
        "class_name": "bottle",
        "class_id": 39,
        "mobility": "minor",
        "confidence": 0.781,
        "observation_count": 14,
        "best_score": 3.885,
        "first_seen": "2026-02-26T12:52:45.682274+00:00",
        "last_seen": "2026-02-26T12:52:52.911536+00:00",
        "ttl_seconds": 120.0
      }
    },
    {
      "type": "Feature",
      "geometry": {
        "type": "Point",
        "coordinates": [
          -0.352,
          -0.0591
        ]
      },
      "properties": {
        "obj_id": "bottle_34",
        "class_name": "bottle",
        "class_id": 39,
        "mobility": "minor",
        "confidence": 0.872,
        "observation_count": 41,
        "best_score": 3.235,
        "first_seen": "2026-02-26T12:52:46.775820+00:00",
        "last_seen": "2026-02-26T12:52:51.821077+00:00",
        "ttl_seconds": 120.0
      }
    }
  ]
}