{
  "type": "FeatureCollection",
  "metadata": {
    "description": "SAIM Xplorer Semantic Object Map",
    "frame": "map",
    "generated_by": "semantic_localizer",
    "last_updated": "2026-02-27T15:05:18.458160+00:00",
    "object_count": 1
  },
  "features": [
    {
      "type": "Feature",
      "geometry": {
        "type": "Point",
        "coordinates": [
          4.0613,
          1.9306
        ]
      },
      "properties": {
        "obj_id": "bottle_0",
        "class_name": "bottle",
        "class_id": 39,
        "mobility": "minor",
        "confidence": 0.745,
        "observation_count": 14,
        "best_score": 0.795,
        "first_seen": "2026-02-27T15:05:05.933705+00:00",
        "last_seen": "2026-02-27T15:05:06.979416+00:00",
        "ttl_seconds": 120.0
      }
    }
  ]
}