{
  "type": "FeatureCollection",
  "metadata": {
    "description": "SAIM Xplorer Semantic Object Map",
    "frame": "map",
    "generated_by": "semantic_localizer",
    "last_updated": "2026-02-27T15:04:48.457258+00:00",
    "object_count": 12
  },
  "features": [
    {
      "type": "Feature",
      "geometry": {
        "type": "Point",
        "coordinates": [
          0.2871,
          -0.2321
        ]
      },
      "properties": {
        "obj_id": "chair_15",
        "class_name": "chair",
        "class_id": 56,
        "mobility": "static",
        "confidence": 0.541,
        "observation_count": 1,
        "best_score": 0.405,
        "first_seen": "2026-02-27T11:25:33.774848+00:00",
        "last_seen": "2026-02-27T11:25:33.774848+00:00",
        "ttl_seconds": -1.0
      }
    },
    {
      "type": "Feature",
      "geometry": {
        "type": "Point",
        "coordinates": [
          -0.5484,
          -3.7378
        ]
      },
      "properties": {
        "obj_id": "chair_16",
        "class_name": "chair",
        "class_id": 56,
        "mobility": "static",
        "confidence": 0.765,
        "observation_count": 37,
        "best_score": 1.286,
        "first_seen": "2026-02-27T11:25:38.922053+00:00",
        "last_seen": "2026-02-27T11:26:13.584397+00:00",
        "ttl_seconds": -1.0
      }
    },
    {
      "type": "Feature",
      "geometry": {
        "type": "Point",
        "coordinates": [
          1.3073,
          -1.0243
        ]
      },
      "properties": {
        "obj_id": "chair_17",
        "class_name": "chair",
        "class_id": 56,
        "mobility": "static",
        "confidence": 0.583,
        "observation_count": 5,
        "best_score": 3.354,
        "first_seen": "2026-02-27T11:25:54.261181+00:00",
        "last_seen": "2026-02-27T11:25:54.262203+00:00",
        "ttl_seconds": -1.0
      }
    },
    {
      "type": "Feature",
      "geometry": {
        "type": "Point",
        "coordinates": [
          -0.8536,
          -4.2759
        ]
      },
      "properties": {
        "obj_id": "chair_18",
        "class_name": "chair",
        "class_id": 56,
        "mobility": "static",
        "confidence": 0.866,
        "observation_count": 9,
        "best_score": 1.898,
        "first_seen": "2026-02-27T11:26:24.490496+00:00",
        "last_seen": "2026-02-27T11:26:24.496028+00:00",
        "ttl_seconds": -1.0
      }
    },
    {
      "type": "Feature",
      "geometry": {
        "type": "Point",
        "coordinates": [
          -1.1291,
          -2.8026
        ]
      },
      "properties": {
        "obj_id": "chair_19",
        "class_name": "chair",
        "class_id": 56,
        "mobility": "static",
        "confidence": 0.748,
        "observation_count": 6,
        "best_score": 1.918,
        "first_seen": "2026-02-27T11:26:24.496047+00:00",
        "last_seen": "2026-02-27T11:26:24.500198+00:00",
        "ttl_seconds": -1.0
      }
    },
    {
      "type": "Feature",
      "geometry": {
        "type": "Point",
        "coordinates": [
          -0.8315,
          -2.1884
        ]
      },
      "properties": {
        "obj_id": "chair_20",
        "class_name": "chair",
        "class_id": 56,
        "mobility": "static",
        "confidence": 0.617,
        "observation_count": 1,
        "best_score": 1.61,
        "first_seen": "2026-02-27T11:26:24.500209+00:00",
        "last_seen": "2026-02-27T11:26:24.500209+00:00",
        "ttl_seconds": -1.0
      }
    },
    {
      "type": "Feature",
      "geometry": {
        "type": "Point",
        "coordinates": [
          -0.4966,
          -1.6035
        ]
      },
      "properties": {
        "obj_id": "chair_21",
        "class_name": "chair",
        "class_id": 56,
        "mobility": "static",
        "confidence": 0.518,
        "observation_count": 1,
        "best_score": 1.514,
        "first_seen": "2026-02-27T11:26:24.501406+00:00",
        "last_seen": "2026-02-27T11:26:24.501406+00:00",
        "ttl_seconds": -1.0
      }
    },
    {
      "type": "Feature",
      "geometry": {
        "type": "Point",
        "coordinates": [
          0.8425,
          -2.9695
        ]
      },
      "properties": {
        "obj_id": "chair_22",
        "class_name": "chair",
        "class_id": 56,
        "mobility": "static",
        "confidence": 0.588,
        "observation_count": 2,
        "best_score": 4.48,
        "first_seen": "2026-02-27T11:26:34.216882+00:00",
        "last_seen": "2026-02-27T11:26:34.217863+00:00",
        "ttl_seconds": -1.0
      }
    },
    {
      "type": "Feature",
      "geometry": {
        "type": "Point",
        "coordinates": [
          -0.6922,
          -3.6978
        ]
      },
      "properties": {
        "obj_id": "tv_23",
        "class_name": "tv",
        "class_id": 62,
        "mobility": "static",
        "confidence": 0.548,
        "observation_count": 6,
        "best_score": 1.328,
        "first_seen": "2026-02-27T11:26:34.217897+00:00",
        "last_seen": "2026-02-27T11:26:34.218766+00:00",
        "ttl_seconds": -1.0
      }
    },
    {
      "type": "Feature",
      "geometry": {
        "type": "Point",
        "coordinates": [
          0.3986,
          1.929
        ]
      },
      "properties": {
        "obj_id": "chair_26",
        "class_name": "chair",
        "class_id": 56,
        "mobility": "static",
        "confidence": 0.608,
        "observation_count": 5,
        "best_score": 4.612,
        "first_seen": "2026-02-27T11:28:35.012528+00:00",
        "last_seen": "2026-02-27T11:28:35.014504+00:00",
        "ttl_seconds": -1.0
      }
    },
    {
      "type": "Feature",
      "geometry": {
        "type": "Point",
        "coordinates": [
          3.5132,
          5.2319
        ]
      },
      "properties": {
        "obj_id": "tv_27",
        "class_name": "tv",
        "class_id": 62,
        "mobility": "static",
        "confidence": 0.675,
        "observation_count": 9,
        "best_score": 2.882,
        "first_seen": "2026-02-27T11:28:55.517317+00:00",
        "last_seen": "2026-02-27T11:28:55.518930+00:00",
        "ttl_seconds": -1.0
      }
    },
    {
      "type": "Feature",
      "geometry": {
        "type": "Point",
        "coordinates": [
          4.0362,
          1.9378
        ]
      },
      "properties": {
        "obj_id": "bottle_32",
        "class_name": "bottle",
        "class_id": 39,
        "mobility": "minor",
        "confidence": 0.749,
        "observation_count": 109,
        "best_score": 0.807,
        "first_seen": "2026-02-27T15:02:06.246271+00:00",
        "last_seen": "2026-02-27T15:04:38.314965+00:00",
        "ttl_seconds": 120.0
      }
    }
  ]
}