{
  "type": "FeatureCollection",
  "metadata": {
    "description": "SAIM Xplorer Semantic Object Map",
    "frame": "map",
    "generated_by": "semantic_localizer",
    "last_updated": "2026-02-26T12:29:45.484872+00:00",
    "object_count": 10
  },
  "features": [
    {
      "type": "Feature",
      "geometry": {
        "type": "Point",
        "coordinates": [
          8.9908,
          -0.1327
        ]
      },
      "properties": {
        "obj_id": "bench_8",
        "class_name": "bench",
        "class_id": 13,
        "mobility": "static",
        "confidence": 0.639,
        "observation_count": 24,
        "best_score": 5.93,
        "first_seen": "2026-02-26T12:54:54.294960+00:00",
        "last_seen": "2026-02-26T12:55:06.054037+00:00",
        "ttl_seconds": -1.0
      }
    },
    {
      "type": "Feature",
      "geometry": {
        "type": "Point",
        "coordinates": [
          -0.4418,
          -0.7648
        ]
      },
      "properties": {
        "obj_id": "chair_9",
        "class_name": "chair",
        "class_id": 56,
        "mobility": "static",
        "confidence": 0.56,
        "observation_count": 3,
        "best_score": 0.938,
        "first_seen": "2026-02-26T12:55:19.662733+00:00",
        "last_seen": "2026-02-26T12:55:19.663927+00:00",
        "ttl_seconds": -1.0
      }
    },
    {
      "type": "Feature",
      "geometry": {
        "type": "Point",
        "coordinates": [
          -1.4664,
          0.6247
        ]
      },
      "properties": {
        "obj_id": "potted plant_10",
        "class_name": "potted plant",
        "class_id": 58,
        "mobility": "static",
        "confidence": 0.524,
        "observation_count": 1,
        "best_score": 0.606,
        "first_seen": "2026-02-26T12:55:19.663937+00:00",
        "last_seen": "2026-02-26T12:55:19.663937+00:00",
        "ttl_seconds": -1.0
      }
    },
    {
      "type": "Feature",
      "geometry": {
        "type": "Point",
        "coordinates": [
          0.9173,
          6.9392
        ]
      },
      "properties": {
        "obj_id": "potted plant_14",
        "class_name": "potted plant",
        "class_id": 58,
        "mobility": "static",
        "confidence": 0.654,
        "observation_count": 6,
        "best_score": 0.199,
        "first_seen": "2026-02-26T12:55:53.179675+00:00",
        "last_seen": "2026-02-26T12:55:53.180696+00:00",
        "ttl_seconds": -1.0
      }
    },
    {
      "type": "Feature",
      "geometry": {
        "type": "Point",
        "coordinates": [
          -1.1332,
          2.1316
        ]
      },
      "properties": {
        "obj_id": "chair_19",
        "class_name": "chair",
        "class_id": 56,
        "mobility": "static",
        "confidence": 0.579,
        "observation_count": 5,
        "best_score": 0.994,
        "first_seen": "2026-02-26T12:56:35.879040+00:00",
        "last_seen": "2026-02-26T12:56:35.880973+00:00",
        "ttl_seconds": -1.0
      }
    },
    {
      "type": "Feature",
      "geometry": {
        "type": "Point",
        "coordinates": [
          9.3455,
          2.1304
        ]
      },
      "properties": {
        "obj_id": "potted plant_22",
        "class_name": "potted plant",
        "class_id": 58,
        "mobility": "static",
        "confidence": 0.528,
        "observation_count": 2,
        "best_score": 0.418,
        "first_seen": "2026-02-26T12:58:12.048426+00:00",
        "last_seen": "2026-02-26T12:58:12.049417+00:00",
        "ttl_seconds": -1.0
      }
    },
    {
      "type": "Feature",
      "geometry": {
        "type": "Point",
        "coordinates": [
          8.5041,
          -1.0896
        ]
      },
      "properties": {
        "obj_id": "bottle_23",
        "class_name": "bottle",
        "class_id": 39,
        "mobility": "minor",
        "confidence": 0.84,
        "observation_count": 154,
        "best_score": 0.389,
        "first_seen": "2026-02-26T12:27:54.805242+00:00",
        "last_seen": "2026-02-26T12:29:28.999057+00:00",
        "ttl_seconds": 120.0
      }
    },
    {
      "type": "Feature",
      "geometry": {
        "type": "Point",
        "coordinates": [
          8.9707,
          -0.8372
        ]
      },
      "properties": {
        "obj_id": "bottle_24",
        "class_name": "bottle",
        "class_id": 39,
        "mobility": "minor",
        "confidence": 0.84,
        "observation_count": 18,
        "best_score": 0.217,
        "first_seen": "2026-02-26T12:27:56.852712+00:00",
        "last_seen": "2026-02-26T12:28:27.061863+00:00",
        "ttl_seconds": 120.0
      }
    },
    {
      "type": "Feature",
      "geometry": {
        "type": "Point",
        "coordinates": [
          7.7465,
          -1.005
        ]
      },
      "properties": {
        "obj_id": "bottle_25",
        "class_name": "bottle",
        "class_id": 39,
        "mobility": "minor",
        "confidence": 0.694,
        "observation_count": 2,
        "best_score": 0.412,
        "first_seen": "2026-02-26T12:29:25.426126+00:00",
        "last_seen": "2026-02-26T12:29:27.495307+00:00",
        "ttl_seconds": 120.0
      }
    },
    {
      "type": "Feature",
      "geometry": {
        "type": "Point",
        "coordinates": [
          3.8363,
          -1.2344
        ]
      },
      "properties": {
        "obj_id": "bench_26",
        "class_name": "bench",
        "class_id": 13,
        "mobility": "static",
        "confidence": 0.636,
        "observation_count": 52,
        "best_score": 2.105,
        "first_seen": "2026-02-26T12:29:25.427206+00:00",
        "last_seen": "2026-02-26T12:29:28.999301+00:00",
        "ttl_seconds": -1.0
      }
    }
  ]
}