{
  "type": "FeatureCollection",
  "metadata": {
    "description": "SAIM Xplorer Semantic Object Map",
    "frame": "map",
    "generated_by": "semantic_localizer",
    "last_updated": "2026-03-10T13:01:17.602956+00:00",
    "object_count": 14
  },
  "features": [
    {
      "type": "Feature",
      "geometry": {
        "type": "Point",
        "coordinates": [
          2.1769,
          0.0146
        ]
      },
      "properties": {
        "obj_id": "potted plant_0",
        "class_name": "potted plant",
        "class_id": 58,
        "mobility": "static",
        "confidence": 0.936,
        "observation_count": 314,
        "best_score": 38.882,
        "first_seen": "2026-03-10T12:56:49.086120+00:00",
        "last_seen": "2026-03-10T13:01:07.607665+00:00",
        "ttl_seconds": -1.0
      }
    },
    {
      "type": "Feature",
      "geometry": {
        "type": "Point",
        "coordinates": [
          5.3626,
          -0.058
        ]
      },
      "properties": {
        "obj_id": "potted plant_2",
        "class_name": "potted plant",
        "class_id": 58,
        "mobility": "static",
        "confidence": 0.843,
        "observation_count": 166,
        "best_score": 35.517,
        "first_seen": "2026-03-10T12:57:16.214592+00:00",
        "last_seen": "2026-03-10T13:00:37.006824+00:00",
        "ttl_seconds": -1.0
      }
    },
    {
      "type": "Feature",
      "geometry": {
        "type": "Point",
        "coordinates": [
          5.2512,
          0.1061
        ]
      },
      "properties": {
        "obj_id": "chair_3",
        "class_name": "chair",
        "class_id": 56,
        "mobility": "static",
        "confidence": 0.523,
        "observation_count": 2,
        "best_score": 18.516,
        "first_seen": "2026-03-10T12:57:18.781585+00:00",
        "last_seen": "2026-03-10T12:57:18.783060+00:00",
        "ttl_seconds": -1.0
      }
    },
    {
      "type": "Feature",
      "geometry": {
        "type": "Point",
        "coordinates": [
          8.8913,
          6.3457
        ]
      },
      "properties": {
        "obj_id": "potted plant_4",
        "class_name": "potted plant",
        "class_id": 58,
        "mobility": "static",
        "confidence": 0.622,
        "observation_count": 6,
        "best_score": 0.676,
        "first_seen": "2026-03-10T12:57:25.824273+00:00",
        "last_seen": "2026-03-10T12:58:22.768959+00:00",
        "ttl_seconds": -1.0
      }
    },
    {
      "type": "Feature",
      "geometry": {
        "type": "Point",
        "coordinates": [
          6.4418,
          6.1602
        ]
      },
      "properties": {
        "obj_id": "chair_5",
        "class_name": "chair",
        "class_id": 56,
        "mobility": "static",
        "confidence": 0.836,
        "observation_count": 17,
        "best_score": 1.667,
        "first_seen": "2026-03-10T12:58:20.743271+00:00",
        "last_seen": "2026-03-10T12:58:21.106290+00:00",
        "ttl_seconds": -1.0
      }
    },
    {
      "type": "Feature",
      "geometry": {
        "type": "Point",
        "coordinates": [
          8.2232,
          6.6742
        ]
      },
      "properties": {
        "obj_id": "potted plant_6",
        "class_name": "potted plant",
        "class_id": 58,
        "mobility": "static",
        "confidence": 0.684,
        "observation_count": 9,
        "best_score": 0.217,
        "first_seen": "2026-03-10T12:58:20.744579+00:00",
        "last_seen": "2026-03-10T12:58:21.106336+00:00",
        "ttl_seconds": -1.0
      }
    },
    {
      "type": "Feature",
      "geometry": {
        "type": "Point",
        "coordinates": [
          5.6315,
          0.1329
        ]
      },
      "properties": {
        "obj_id": "dining table_8",
        "class_name": "dining table",
        "class_id": 60,
        "mobility": "static",
        "confidence": 0.517,
        "observation_count": 4,
        "best_score": 32.803,
        "first_seen": "2026-03-10T12:58:36.406373+00:00",
        "last_seen": "2026-03-10T12:58:36.407812+00:00",
        "ttl_seconds": -1.0
      }
    },
    {
      "type": "Feature",
      "geometry": {
        "type": "Point",
        "coordinates": [
          -0.3931,
          1.9061
        ]
      },
      "properties": {
        "obj_id": "chair_9",
        "class_name": "chair",
        "class_id": 56,
        "mobility": "static",
        "confidence": 0.539,
        "observation_count": 2,
        "best_score": 7.699,
        "first_seen": "2026-03-10T12:59:05.304907+00:00",
        "last_seen": "2026-03-10T12:59:05.308330+00:00",
        "ttl_seconds": -1.0
      }
    },
    {
      "type": "Feature",
      "geometry": {
        "type": "Point",
        "coordinates": [
          0.1797,
          2.158
        ]
      },
      "properties": {
        "obj_id": "chair_10",
        "class_name": "chair",
        "class_id": 56,
        "mobility": "static",
        "confidence": 0.647,
        "observation_count": 7,
        "best_score": 7.004,
        "first_seen": "2026-03-10T12:59:06.070057+00:00",
        "last_seen": "2026-03-10T12:59:06.072291+00:00",
        "ttl_seconds": -1.0
      }
    },
    {
      "type": "Feature",
      "geometry": {
        "type": "Point",
        "coordinates": [
          1.7053,
          5.8509
        ]
      },
      "properties": {
        "obj_id": "chair_11",
        "class_name": "chair",
        "class_id": 56,
        "mobility": "static",
        "confidence": 0.54,
        "observation_count": 2,
        "best_score": 2.582,
        "first_seen": "2026-03-10T12:59:06.071123+00:00",
        "last_seen": "2026-03-10T12:59:06.072358+00:00",
        "ttl_seconds": -1.0
      }
    },
    {
      "type": "Feature",
      "geometry": {
        "type": "Point",
        "coordinates": [
          4.9077,
          3.8051
        ]
      },
      "properties": {
        "obj_id": "bench_16",
        "class_name": "bench",
        "class_id": 13,
        "mobility": "static",
        "confidence": 0.518,
        "observation_count": 1,
        "best_score": 2.355,
        "first_seen": "2026-03-10T12:59:11.835166+00:00",
        "last_seen": "2026-03-10T12:59:11.835166+00:00",
        "ttl_seconds": -1.0
      }
    },
    {
      "type": "Feature",
      "geometry": {
        "type": "Point",
        "coordinates": [
          1.98,
          -0.1375
        ]
      },
      "properties": {
        "obj_id": "chair_17",
        "class_name": "chair",
        "class_id": 56,
        "mobility": "static",
        "confidence": 0.637,
        "observation_count": 15,
        "best_score": 16.367,
        "first_seen": "2026-03-10T12:59:15.804676+00:00",
        "last_seen": "2026-03-10T13:00:50.619889+00:00",
        "ttl_seconds": -1.0
      }
    },
    {
      "type": "Feature",
      "geometry": {
        "type": "Point",
        "coordinates": [
          4.3746,
          3.5847
        ]
      },
      "properties": {
        "obj_id": "person_19",
        "class_name": "person",
        "class_id": 0,
        "mobility": "dynamic",
        "confidence": 0.864,
        "observation_count": 74,
        "best_score": 2.695,
        "first_seen": "2026-03-10T12:59:54.000848+00:00",
        "last_seen": "2026-03-10T13:01:06.111315+00:00",
        "ttl_seconds": 60.0
      }
    },
    {
      "type": "Feature",
      "geometry": {
        "type": "Point",
        "coordinates": [
          3.6091,
          4.3588
        ]
      },
      "properties": {
        "obj_id": "person_21",
        "class_name": "person",
        "class_id": 0,
        "mobility": "dynamic",
        "confidence": 0.827,
        "observation_count": 18,
        "best_score": 1.621,
        "first_seen": "2026-03-10T13:01:05.114267+00:00",
        "last_seen": "2026-03-10T13:01:06.111328+00:00",
        "ttl_seconds": 60.0
      }
    }
  ]
}