{
  "type": "FeatureCollection",
  "metadata": {
    "description": "SAIM Xplorer Semantic Object Map",
    "frame": "map",
    "generated_by": "semantic_localizer",
    "last_updated": "2026-03-10T12:56:47.607462+00:00",
    "object_count": 28
  },
  "features": [
    {
      "type": "Feature",
      "geometry": {
        "type": "Point",
        "coordinates": [
          3.8283,
          -0.2936
        ]
      },
      "properties": {
        "obj_id": "potted plant_0",
        "class_name": "potted plant",
        "class_id": 58,
        "mobility": "static",
        "confidence": 0.587,
        "observation_count": 3,
        "best_score": 0.427,
        "first_seen": "2026-03-10T12:51:47.897030+00:00",
        "last_seen": "2026-03-10T12:51:47.897949+00:00",
        "ttl_seconds": -1.0
      }
    },
    {
      "type": "Feature",
      "geometry": {
        "type": "Point",
        "coordinates": [
          2.4732,
          0.1145
        ]
      },
      "properties": {
        "obj_id": "potted plant_1",
        "class_name": "potted plant",
        "class_id": 58,
        "mobility": "static",
        "confidence": 0.93,
        "observation_count": 341,
        "best_score": 38.228,
        "first_seen": "2026-03-10T12:51:48.245320+00:00",
        "last_seen": "2026-03-10T12:54:23.715622+00:00",
        "ttl_seconds": -1.0
      }
    },
    {
      "type": "Feature",
      "geometry": {
        "type": "Point",
        "coordinates": [
          2.7723,
          0.333
        ]
      },
      "properties": {
        "obj_id": "dining table_2",
        "class_name": "dining table",
        "class_id": 60,
        "mobility": "static",
        "confidence": 0.626,
        "observation_count": 14,
        "best_score": 35.043,
        "first_seen": "2026-03-10T12:51:48.644488+00:00",
        "last_seen": "2026-03-10T12:53:16.616064+00:00",
        "ttl_seconds": -1.0
      }
    },
    {
      "type": "Feature",
      "geometry": {
        "type": "Point",
        "coordinates": [
          4.6062,
          -1.2591
        ]
      },
      "properties": {
        "obj_id": "bench_3",
        "class_name": "bench",
        "class_id": 13,
        "mobility": "static",
        "confidence": 0.528,
        "observation_count": 2,
        "best_score": 11.192,
        "first_seen": "2026-03-10T12:52:25.324287+00:00",
        "last_seen": "2026-03-10T12:52:25.325722+00:00",
        "ttl_seconds": -1.0
      }
    },
    {
      "type": "Feature",
      "geometry": {
        "type": "Point",
        "coordinates": [
          1.628,
          0.5219
        ]
      },
      "properties": {
        "obj_id": "potted plant_4",
        "class_name": "potted plant",
        "class_id": 58,
        "mobility": "static",
        "confidence": 0.77,
        "observation_count": 9,
        "best_score": 1.455,
        "first_seen": "2026-03-10T12:52:26.031147+00:00",
        "last_seen": "2026-03-10T12:52:26.032111+00:00",
        "ttl_seconds": -1.0
      }
    },
    {
      "type": "Feature",
      "geometry": {
        "type": "Point",
        "coordinates": [
          -0.3894,
          1.011
        ]
      },
      "properties": {
        "obj_id": "potted plant_5",
        "class_name": "potted plant",
        "class_id": 58,
        "mobility": "static",
        "confidence": 0.804,
        "observation_count": 9,
        "best_score": 0.801,
        "first_seen": "2026-03-10T12:52:26.433697+00:00",
        "last_seen": "2026-03-10T12:52:26.434769+00:00",
        "ttl_seconds": -1.0
      }
    },
    {
      "type": "Feature",
      "geometry": {
        "type": "Point",
        "coordinates": [
          2.7952,
          -0.2627
        ]
      },
      "properties": {
        "obj_id": "potted plant_6",
        "class_name": "potted plant",
        "class_id": 58,
        "mobility": "static",
        "confidence": 0.935,
        "observation_count": 253,
        "best_score": 31.989,
        "first_seen": "2026-03-10T12:52:26.846215+00:00",
        "last_seen": "2026-03-10T12:54:17.515160+00:00",
        "ttl_seconds": -1.0
      }
    },
    {
      "type": "Feature",
      "geometry": {
        "type": "Point",
        "coordinates": [
          -0.3713,
          1.263
        ]
      },
      "properties": {
        "obj_id": "chair_7",
        "class_name": "chair",
        "class_id": 56,
        "mobility": "static",
        "confidence": 0.516,
        "observation_count": 2,
        "best_score": 1.955,
        "first_seen": "2026-03-10T12:52:26.847572+00:00",
        "last_seen": "2026-03-10T12:52:26.848365+00:00",
        "ttl_seconds": -1.0
      }
    },
    {
      "type": "Feature",
      "geometry": {
        "type": "Point",
        "coordinates": [
          -0.473,
          0.1007
        ]
      },
      "properties": {
        "obj_id": "potted plant_8",
        "class_name": "potted plant",
        "class_id": 58,
        "mobility": "static",
        "confidence": 0.815,
        "observation_count": 21,
        "best_score": 1.805,
        "first_seen": "2026-03-10T12:52:33.155649+00:00",
        "last_seen": "2026-03-10T12:52:38.411795+00:00",
        "ttl_seconds": -1.0
      }
    },
    {
      "type": "Feature",
      "geometry": {
        "type": "Point",
        "coordinates": [
          2.5317,
          0.1683
        ]
      },
      "properties": {
        "obj_id": "chair_9",
        "class_name": "chair",
        "class_id": 56,
        "mobility": "static",
        "confidence": 0.585,
        "observation_count": 13,
        "best_score": 13.149,
        "first_seen": "2026-03-10T12:52:36.018476+00:00",
        "last_seen": "2026-03-10T12:54:19.913445+00:00",
        "ttl_seconds": -1.0
      }
    },
    {
      "type": "Feature",
      "geometry": {
        "type": "Point",
        "coordinates": [
          -0.1776,
          2.8621
        ]
      },
      "properties": {
        "obj_id": "chair_10",
        "class_name": "chair",
        "class_id": 56,
        "mobility": "static",
        "confidence": 0.506,
        "observation_count": 1,
        "best_score": 2.374,
        "first_seen": "2026-03-10T12:52:37.032204+00:00",
        "last_seen": "2026-03-10T12:52:37.032204+00:00",
        "ttl_seconds": -1.0
      }
    },
    {
      "type": "Feature",
      "geometry": {
        "type": "Point",
        "coordinates": [
          0.2979,
          0.2
        ]
      },
      "properties": {
        "obj_id": "potted plant_11",
        "class_name": "potted plant",
        "class_id": 58,
        "mobility": "static",
        "confidence": 0.737,
        "observation_count": 3,
        "best_score": 2.278,
        "first_seen": "2026-03-10T12:52:38.088589+00:00",
        "last_seen": "2026-03-10T12:52:38.091223+00:00",
        "ttl_seconds": -1.0
      }
    },
    {
      "type": "Feature",
      "geometry": {
        "type": "Point",
        "coordinates": [
          1.0107,
          0.1803
        ]
      },
      "properties": {
        "obj_id": "potted plant_12",
        "class_name": "potted plant",
        "class_id": 58,
        "mobility": "static",
        "confidence": 0.599,
        "observation_count": 3,
        "best_score": 2.078,
        "first_seen": "2026-03-10T12:52:38.091255+00:00",
        "last_seen": "2026-03-10T12:52:38.094026+00:00",
        "ttl_seconds": -1.0
      }
    },
    {
      "type": "Feature",
      "geometry": {
        "type": "Point",
        "coordinates": [
          8.7484,
          -1.1156
        ]
      },
      "properties": {
        "obj_id": "bench_13",
        "class_name": "bench",
        "class_id": 13,
        "mobility": "static",
        "confidence": 0.583,
        "observation_count": 10,
        "best_score": 7.046,
        "first_seen": "2026-03-10T12:53:44.630580+00:00",
        "last_seen": "2026-03-10T12:53:46.003032+00:00",
        "ttl_seconds": -1.0
      }
    },
    {
      "type": "Feature",
      "geometry": {
        "type": "Point",
        "coordinates": [
          7.2508,
          -1.6009
        ]
      },
      "properties": {
        "obj_id": "potted plant_14",
        "class_name": "potted plant",
        "class_id": 58,
        "mobility": "static",
        "confidence": 0.647,
        "observation_count": 58,
        "best_score": 7.571,
        "first_seen": "2026-03-10T12:53:46.002115+00:00",
        "last_seen": "2026-03-10T12:53:52.796832+00:00",
        "ttl_seconds": -1.0
      }
    },
    {
      "type": "Feature",
      "geometry": {
        "type": "Point",
        "coordinates": [
          6.414,
          -2.1583
        ]
      },
      "properties": {
        "obj_id": "chair_15",
        "class_name": "chair",
        "class_id": 56,
        "mobility": "static",
        "confidence": 0.51,
        "observation_count": 2,
        "best_score": 7.47,
        "first_seen": "2026-03-10T12:53:52.795879+00:00",
        "last_seen": "2026-03-10T12:53:52.796870+00:00",
        "ttl_seconds": -1.0
      }
    },
    {
      "type": "Feature",
      "geometry": {
        "type": "Point",
        "coordinates": [
          2.672,
          4.4914
        ]
      },
      "properties": {
        "obj_id": "chair_19",
        "class_name": "chair",
        "class_id": 56,
        "mobility": "static",
        "confidence": 0.527,
        "observation_count": 1,
        "best_score": 0.377,
        "first_seen": "2026-03-10T12:54:14.231661+00:00",
        "last_seen": "2026-03-10T12:54:14.231661+00:00",
        "ttl_seconds": -1.0
      }
    },
    {
      "type": "Feature",
      "geometry": {
        "type": "Point",
        "coordinates": [
          1.4887,
          -1.6776
        ]
      },
      "properties": {
        "obj_id": "chair_21",
        "class_name": "chair",
        "class_id": 56,
        "mobility": "static",
        "confidence": 0.7,
        "observation_count": 20,
        "best_score": 8.013,
        "first_seen": "2026-03-10T12:54:18.727103+00:00",
        "last_seen": "2026-03-10T12:54:20.259874+00:00",
        "ttl_seconds": -1.0
      }
    },
    {
      "type": "Feature",
      "geometry": {
        "type": "Point",
        "coordinates": [
          1.6631,
          0.6851
        ]
      },
      "properties": {
        "obj_id": "person_29",
        "class_name": "person",
        "class_id": 0,
        "mobility": "dynamic",
        "confidence": 0.782,
        "observation_count": 10,
        "best_score": 23.61,
        "first_seen": "2026-03-10T12:55:45.591138+00:00",
        "last_seen": "2026-03-10T12:55:45.592624+00:00",
        "ttl_seconds": 60.0
      }
    },
    {
      "type": "Feature",
      "geometry": {
        "type": "Point",
        "coordinates": [
          3.3491,
          0.7694
        ]
      },
      "properties": {
        "obj_id": "person_30",
        "class_name": "person",
        "class_id": 0,
        "mobility": "dynamic",
        "confidence": 0.826,
        "observation_count": 10,
        "best_score": 5.988,
        "first_seen": "2026-03-10T12:55:53.261214+00:00",
        "last_seen": "2026-03-10T12:55:53.262799+00:00",
        "ttl_seconds": 60.0
      }
    },
    {
      "type": "Feature",
      "geometry": {
        "type": "Point",
        "coordinates": [
          1.9383,
          -0.0589
        ]
      },
      "properties": {
        "obj_id": "potted plant_31",
        "class_name": "potted plant",
        "class_id": 58,
        "mobility": "static",
        "confidence": 0.895,
        "observation_count": 107,
        "best_score": 37.147,
        "first_seen": "2026-03-10T12:56:18.356883+00:00",
        "last_seen": "2026-03-10T12:56:31.177930+00:00",
        "ttl_seconds": -1.0
      }
    },
    {
      "type": "Feature",
      "geometry": {
        "type": "Point",
        "coordinates": [
          6.0213,
          1.4596
        ]
      },
      "properties": {
        "obj_id": "person_32",
        "class_name": "person",
        "class_id": 0,
        "mobility": "dynamic",
        "confidence": 0.703,
        "observation_count": 6,
        "best_score": 1.401,
        "first_seen": "2026-03-10T12:56:18.358808+00:00",
        "last_seen": "2026-03-10T12:56:18.361041+00:00",
        "ttl_seconds": 60.0
      }
    },
    {
      "type": "Feature",
      "geometry": {
        "type": "Point",
        "coordinates": [
          5.0636,
          1.1908
        ]
      },
      "properties": {
        "obj_id": "person_33",
        "class_name": "person",
        "class_id": 0,
        "mobility": "dynamic",
        "confidence": 0.814,
        "observation_count": 10,
        "best_score": 2.835,
        "first_seen": "2026-03-10T12:56:18.360016+00:00",
        "last_seen": "2026-03-10T12:56:19.398345+00:00",
        "ttl_seconds": 60.0
      }
    },
    {
      "type": "Feature",
      "geometry": {
        "type": "Point",
        "coordinates": [
          4.9734,
          1.3729
        ]
      },
      "properties": {
        "obj_id": "potted plant_34",
        "class_name": "potted plant",
        "class_id": 58,
        "mobility": "static",
        "confidence": 0.527,
        "observation_count": 3,
        "best_score": 0.66,
        "first_seen": "2026-03-10T12:56:18.361058+00:00",
        "last_seen": "2026-03-10T12:56:18.884526+00:00",
        "ttl_seconds": -1.0
      }
    },
    {
      "type": "Feature",
      "geometry": {
        "type": "Point",
        "coordinates": [
          7.0235,
          1.6625
        ]
      },
      "properties": {
        "obj_id": "person_35",
        "class_name": "person",
        "class_id": 0,
        "mobility": "dynamic",
        "confidence": 0.848,
        "observation_count": 9,
        "best_score": 1.545,
        "first_seen": "2026-03-10T12:56:18.882689+00:00",
        "last_seen": "2026-03-10T12:56:18.884494+00:00",
        "ttl_seconds": 60.0
      }
    },
    {
      "type": "Feature",
      "geometry": {
        "type": "Point",
        "coordinates": [
          4.5091,
          0.4315
        ]
      },
      "properties": {
        "obj_id": "person_36",
        "class_name": "person",
        "class_id": 0,
        "mobility": "dynamic",
        "confidence": 0.821,
        "observation_count": 28,
        "best_score": 3.197,
        "first_seen": "2026-03-10T12:56:22.984010+00:00",
        "last_seen": "2026-03-10T12:56:23.500783+00:00",
        "ttl_seconds": 60.0
      }
    },
    {
      "type": "Feature",
      "geometry": {
        "type": "Point",
        "coordinates": [
          2.0192,
          0.1335
        ]
      },
      "properties": {
        "obj_id": "person_37",
        "class_name": "person",
        "class_id": 0,
        "mobility": "dynamic",
        "confidence": 0.696,
        "observation_count": 9,
        "best_score": 8.398,
        "first_seen": "2026-03-10T12:56:23.993299+00:00",
        "last_seen": "2026-03-10T12:56:23.994283+00:00",
        "ttl_seconds": 60.0
      }
    },
    {
      "type": "Feature",
      "geometry": {
        "type": "Point",
        "coordinates": [
          1.9904,
          0.0435
        ]
      },
      "properties": {
        "obj_id": "dining table_38",
        "class_name": "dining table",
        "class_id": 60,
        "mobility": "static",
        "confidence": 0.604,
        "observation_count": 7,
        "best_score": 43.016,
        "first_seen": "2026-03-10T12:56:25.002193+00:00",
        "last_seen": "2026-03-10T12:56:31.178043+00:00",
        "ttl_seconds": -1.0
      }
    }
  ]
}