{
  "type": "FeatureCollection",
  "metadata": {
    "description": "SAIM Xplorer Semantic Object Map",
    "frame": "map",
    "generated_by": "semantic_localizer",
    "last_updated": "2026-02-26T11:29:35.785114+00:00",
    "object_count": 3
  },
  "features": [
    {
      "type": "Feature",
      "geometry": {
        "type": "Point",
        "coordinates": [
          6.002,
          2.649
        ]
      },
      "properties": {
        "obj_id": "",
        "class_name": "",
        "class_id": -1,
        "mobility": "static",
        "confidence": 0.0,
        "observation_count": 1,
        "best_score": 0.0,
        "first_seen": "",
        "last_seen": "",
        "ttl_seconds": -1.0
      }
    },
    {
      "type": "Feature",
      "geometry": {
        "type": "Point",
        "coordinates": [
          2.2386,
          2.8242
        ]
      },
      "properties": {
        "obj_id": "bottle_0",
        "class_name": "bottle",
        "class_id": 39,
        "mobility": "minor",
        "confidence": 0.908,
        "observation_count": 1344,
        "best_score": 22.105,
        "first_seen": "2026-02-26T11:21:37.741482+00:00",
        "last_seen": "2026-02-26T11:29:23.086456+00:00",
        "ttl_seconds": 120.0
      }
    },
    {
      "type": "Feature",
      "geometry": {
        "type": "Point",
        "coordinates": [
          2.9143,
          2.0884
        ]
      },
      "properties": {
        "obj_id": "microwave_3",
        "class_name": "microwave",
        "class_id": 68,
        "mobility": "static",
        "confidence": 0.562,
        "observation_count": 11,
        "best_score": 7.005,
        "first_seen": "2026-02-26T11:25:20.905612+00:00",
        "last_seen": "2026-02-26T11:29:16.390226+00:00",
        "ttl_seconds": -1.0
      }
    }
  ]
}