{
  "type": "FeatureCollection",
  "metadata": {
    "description": "SAIM Xplorer Semantic Object Map",
    "frame": "map",
    "generated_by": "semantic_localizer",
    "last_updated": "2026-02-26T12:35:25.937694+00:00",
    "object_count": 4
  },
  "features": [
    {
      "type": "Feature",
      "geometry": {
        "type": "Point",
        "coordinates": [
          6.3737,
          -1.2384
        ]
      },
      "properties": {
        "obj_id": "bottle_0",
        "class_name": "bottle",
        "class_id": 39,
        "mobility": "minor",
        "confidence": 0.53,
        "observation_count": 6,
        "best_score": 0.396,
        "first_seen": "2026-02-26T12:34:45.449356+00:00",
        "last_seen": "2026-02-26T12:35:16.093667+00:00",
        "ttl_seconds": 120.0
      }
    },
    {
      "type": "Feature",
      "geometry": {
        "type": "Point",
        "coordinates": [
          7.5446,
          -1.5084
        ]
      },
      "properties": {
        "obj_id": "bottle_1",
        "class_name": "bottle",
        "class_id": 39,
        "mobility": "minor",
        "confidence": 0.533,
        "observation_count": 13,
        "best_score": 0.4,
        "first_seen": "2026-02-26T12:34:46.809251+00:00",
        "last_seen": "2026-02-26T12:35:15.644264+00:00",
        "ttl_seconds": 120.0
      }
    },
    {
      "type": "Feature",
      "geometry": {
        "type": "Point",
        "coordinates": [
          2.9246,
          -0.4432
        ]
      },
      "properties": {
        "obj_id": "bottle_2",
        "class_name": "bottle",
        "class_id": 39,
        "mobility": "minor",
        "confidence": 0.542,
        "observation_count": 15,
        "best_score": 1.456,
        "first_seen": "2026-02-26T12:34:47.219951+00:00",
        "last_seen": "2026-02-26T12:35:11.946202+00:00",
        "ttl_seconds": 120.0
      }
    },
    {
      "type": "Feature",
      "geometry": {
        "type": "Point",
        "coordinates": [
          5.2213,
          -0.9727
        ]
      },
      "properties": {
        "obj_id": "bottle_3",
        "class_name": "bottle",
        "class_id": 39,
        "mobility": "minor",
        "confidence": 0.517,
        "observation_count": 1,
        "best_score": 0.373,
        "first_seen": "2026-02-26T12:34:50.277431+00:00",
        "last_seen": "2026-02-26T12:34:50.277431+00:00",
        "ttl_seconds": 120.0
      }
    }
  ]
}