{
  "type": "FeatureCollection",
  "metadata": {
    "description": "SAIM Xplorer Semantic Object Map",
    "frame": "map",
    "generated_by": "semantic_localizer",
    "last_updated": "2026-02-26T13:53:42.347155+00:00",
    "object_count": 7
  },
  "features": [
    {
      "type": "Feature",
      "geometry": {
        "type": "Point",
        "coordinates": [
          0.4158,
          2.7455
        ]
      },
      "properties": {
        "obj_id": "bench_7",
        "class_name": "bench",
        "class_id": 13,
        "mobility": "static",
        "confidence": 0.716,
        "observation_count": 24,
        "best_score": 14.53,
        "first_seen": "2026-02-26T13:44:43.765847+00:00",
        "last_seen": "2026-02-26T13:46:41.898450+00:00",
        "ttl_seconds": -1.0
      }
    },
    {
      "type": "Feature",
      "geometry": {
        "type": "Point",
        "coordinates": [
          6.6921,
          1.7905
        ]
      },
      "properties": {
        "obj_id": "refrigerator_9",
        "class_name": "refrigerator",
        "class_id": 72,
        "mobility": "static",
        "confidence": 0.579,
        "observation_count": 5,
        "best_score": 0.598,
        "first_seen": "2026-02-26T13:44:59.315323+00:00",
        "last_seen": "2026-02-26T13:44:59.316905+00:00",
        "ttl_seconds": -1.0
      }
    },
    {
      "type": "Feature",
      "geometry": {
        "type": "Point",
        "coordinates": [
          0.7272,
          1.9697
        ]
      },
      "properties": {
        "obj_id": "chair_11",
        "class_name": "chair",
        "class_id": 56,
        "mobility": "static",
        "confidence": 0.521,
        "observation_count": 2,
        "best_score": 2.09,
        "first_seen": "2026-02-26T13:45:26.376972+00:00",
        "last_seen": "2026-02-26T13:45:26.383010+00:00",
        "ttl_seconds": -1.0
      }
    },
    {
      "type": "Feature",
      "geometry": {
        "type": "Point",
        "coordinates": [
          0.5414,
          2.8281
        ]
      },
      "properties": {
        "obj_id": "suitcase_16",
        "class_name": "suitcase",
        "class_id": 28,
        "mobility": "static",
        "confidence": 0.58,
        "observation_count": 3,
        "best_score": 10.576,
        "first_seen": "2026-02-26T13:46:05.841882+00:00",
        "last_seen": "2026-02-26T13:46:05.843141+00:00",
        "ttl_seconds": -1.0
      }
    },
    {
      "type": "Feature",
      "geometry": {
        "type": "Point",
        "coordinates": [
          6.3107,
          1.3669
        ]
      },
      "properties": {
        "obj_id": "refrigerator_20",
        "class_name": "refrigerator",
        "class_id": 72,
        "mobility": "static",
        "confidence": 0.502,
        "observation_count": 1,
        "best_score": 1.152,
        "first_seen": "2026-02-26T13:46:18.122217+00:00",
        "last_seen": "2026-02-26T13:46:18.122217+00:00",
        "ttl_seconds": -1.0
      }
    },
    {
      "type": "Feature",
      "geometry": {
        "type": "Point",
        "coordinates": [
          -0.4382,
          2.7842
        ]
      },
      "properties": {
        "obj_id": "bench_27",
        "class_name": "bench",
        "class_id": 13,
        "mobility": "static",
        "confidence": 0.69,
        "observation_count": 7,
        "best_score": 3.329,
        "first_seen": "2026-02-26T13:46:41.039714+00:00",
        "last_seen": "2026-02-26T13:46:41.043634+00:00",
        "ttl_seconds": -1.0
      }
    },
    {
      "type": "Feature",
      "geometry": {
        "type": "Point",
        "coordinates": [
          5.3174,
          2.1567
        ]
      },
      "properties": {
        "obj_id": "refrigerator_28",
        "class_name": "refrigerator",
        "class_id": 72,
        "mobility": "static",
        "confidence": 0.582,
        "observation_count": 6,
        "best_score": 17.421,
        "first_seen": "2026-02-26T13:47:10.323854+00:00",
        "last_seen": "2026-02-26T13:49:39.031878+00:00",
        "ttl_seconds": -1.0
      }
    }
  ]
}