{
  "type": "FeatureCollection",
  "metadata": {
    "description": "SAIM Xplorer Semantic Object Map",
    "frame": "map",
    "generated_by": "semantic_localizer",
    "last_updated": "2026-02-26T12:35:51.277378+00:00",
    "object_count": 21
  },
  "features": [
    {
      "type": "Feature",
      "geometry": {
        "type": "Point",
        "coordinates": [
          7.7948,
          -1.6189
        ]
      },
      "properties": {
        "obj_id": "potted plant_0",
        "class_name": "potted plant",
        "class_id": 58,
        "mobility": "static",
        "confidence": 0.517,
        "observation_count": 1,
        "best_score": 0.153,
        "first_seen": "2026-02-26T12:32:31.180732+00:00",
        "last_seen": "2026-02-26T12:32:31.180732+00:00",
        "ttl_seconds": -1.0
      }
    },
    {
      "type": "Feature",
      "geometry": {
        "type": "Point",
        "coordinates": [
          9.034,
          1.1133
        ]
      },
      "properties": {
        "obj_id": "potted plant_1",
        "class_name": "potted plant",
        "class_id": 58,
        "mobility": "static",
        "confidence": 0.693,
        "observation_count": 8,
        "best_score": 0.73,
        "first_seen": "2026-02-26T12:32:37.954459+00:00",
        "last_seen": "2026-02-26T12:34:33.309151+00:00",
        "ttl_seconds": -1.0
      }
    },
    {
      "type": "Feature",
      "geometry": {
        "type": "Point",
        "coordinates": [
          6.9814,
          -1.5634
        ]
      },
      "properties": {
        "obj_id": "potted plant_2",
        "class_name": "potted plant",
        "class_id": 58,
        "mobility": "static",
        "confidence": 0.611,
        "observation_count": 4,
        "best_score": 0.538,
        "first_seen": "2026-02-26T12:32:39.630136+00:00",
        "last_seen": "2026-02-26T12:32:39.631434+00:00",
        "ttl_seconds": -1.0
      }
    },
    {
      "type": "Feature",
      "geometry": {
        "type": "Point",
        "coordinates": [
          7.797,
          -0.9162
        ]
      },
      "properties": {
        "obj_id": "potted plant_3",
        "class_name": "potted plant",
        "class_id": 58,
        "mobility": "static",
        "confidence": 0.614,
        "observation_count": 7,
        "best_score": 1.01,
        "first_seen": "2026-02-26T12:32:41.518094+00:00",
        "last_seen": "2026-02-26T12:34:38.027452+00:00",
        "ttl_seconds": -1.0
      }
    },
    {
      "type": "Feature",
      "geometry": {
        "type": "Point",
        "coordinates": [
          8.7696,
          -0.9603
        ]
      },
      "properties": {
        "obj_id": "potted plant_4",
        "class_name": "potted plant",
        "class_id": 58,
        "mobility": "static",
        "confidence": 0.584,
        "observation_count": 4,
        "best_score": 0.731,
        "first_seen": "2026-02-26T12:32:44.871630+00:00",
        "last_seen": "2026-02-26T12:32:44.873958+00:00",
        "ttl_seconds": -1.0
      }
    },
    {
      "type": "Feature",
      "geometry": {
        "type": "Point",
        "coordinates": [
          9.0332,
          -0.5087
        ]
      },
      "properties": {
        "obj_id": "potted plant_5",
        "class_name": "potted plant",
        "class_id": 58,
        "mobility": "static",
        "confidence": 0.505,
        "observation_count": 1,
        "best_score": 0.286,
        "first_seen": "2026-02-26T12:33:58.400098+00:00",
        "last_seen": "2026-02-26T12:33:58.400098+00:00",
        "ttl_seconds": -1.0
      }
    },
    {
      "type": "Feature",
      "geometry": {
        "type": "Point",
        "coordinates": [
          -0.3867,
          0.5093
        ]
      },
      "properties": {
        "obj_id": "potted plant_6",
        "class_name": "potted plant",
        "class_id": 58,
        "mobility": "static",
        "confidence": 0.657,
        "observation_count": 3,
        "best_score": 1.921,
        "first_seen": "2026-02-26T12:34:13.945220+00:00",
        "last_seen": "2026-02-26T12:34:13.946482+00:00",
        "ttl_seconds": -1.0
      }
    },
    {
      "type": "Feature",
      "geometry": {
        "type": "Point",
        "coordinates": [
          -0.9066,
          1.7346
        ]
      },
      "properties": {
        "obj_id": "potted plant_7",
        "class_name": "potted plant",
        "class_id": 58,
        "mobility": "static",
        "confidence": 0.606,
        "observation_count": 6,
        "best_score": 1.177,
        "first_seen": "2026-02-26T12:34:27.571187+00:00",
        "last_seen": "2026-02-26T12:34:27.572386+00:00",
        "ttl_seconds": -1.0
      }
    },
    {
      "type": "Feature",
      "geometry": {
        "type": "Point",
        "coordinates": [
          8.0755,
          -0.0758
        ]
      },
      "properties": {
        "obj_id": "bench_8",
        "class_name": "bench",
        "class_id": 13,
        "mobility": "static",
        "confidence": 0.664,
        "observation_count": 8,
        "best_score": 2.989,
        "first_seen": "2026-02-26T12:34:31.960354+00:00",
        "last_seen": "2026-02-26T12:34:31.963062+00:00",
        "ttl_seconds": -1.0
      }
    },
    {
      "type": "Feature",
      "geometry": {
        "type": "Point",
        "coordinates": [
          7.7833,
          1.6792
        ]
      },
      "properties": {
        "obj_id": "potted plant_9",
        "class_name": "potted plant",
        "class_id": 58,
        "mobility": "static",
        "confidence": 0.623,
        "observation_count": 3,
        "best_score": 0.225,
        "first_seen": "2026-02-26T12:34:31.961980+00:00",
        "last_seen": "2026-02-26T12:34:31.963071+00:00",
        "ttl_seconds": -1.0
      }
    },
    {
      "type": "Feature",
      "geometry": {
        "type": "Point",
        "coordinates": [
          9.0296,
          3.3096
        ]
      },
      "properties": {
        "obj_id": "potted plant_10",
        "class_name": "potted plant",
        "class_id": 58,
        "mobility": "static",
        "confidence": 0.688,
        "observation_count": 8,
        "best_score": 0.286,
        "first_seen": "2026-02-26T12:34:32.556798+00:00",
        "last_seen": "2026-02-26T12:34:32.902629+00:00",
        "ttl_seconds": -1.0
      }
    },
    {
      "type": "Feature",
      "geometry": {
        "type": "Point",
        "coordinates": [
          8.9511,
          1.8319
        ]
      },
      "properties": {
        "obj_id": "bench_11",
        "class_name": "bench",
        "class_id": 13,
        "mobility": "static",
        "confidence": 0.578,
        "observation_count": 2,
        "best_score": 2.312,
        "first_seen": "2026-02-26T12:34:32.902642+00:00",
        "last_seen": "2026-02-26T12:34:32.903695+00:00",
        "ttl_seconds": -1.0
      }
    },
    {
      "type": "Feature",
      "geometry": {
        "type": "Point",
        "coordinates": [
          8.8112,
          3.3784
        ]
      },
      "properties": {
        "obj_id": "bench_12",
        "class_name": "bench",
        "class_id": 13,
        "mobility": "static",
        "confidence": 0.512,
        "observation_count": 1,
        "best_score": 0.726,
        "first_seen": "2026-02-26T12:34:33.309162+00:00",
        "last_seen": "2026-02-26T12:34:33.309162+00:00",
        "ttl_seconds": -1.0
      }
    },
    {
      "type": "Feature",
      "geometry": {
        "type": "Point",
        "coordinates": [
          8.9804,
          0.2017
        ]
      },
      "properties": {
        "obj_id": "bench_13",
        "class_name": "bench",
        "class_id": 13,
        "mobility": "static",
        "confidence": 0.564,
        "observation_count": 4,
        "best_score": 2.69,
        "first_seen": "2026-02-26T12:34:41.882933+00:00",
        "last_seen": "2026-02-26T12:34:43.814397+00:00",
        "ttl_seconds": -1.0
      }
    },
    {
      "type": "Feature",
      "geometry": {
        "type": "Point",
        "coordinates": [
          2.1271,
          6.2196
        ]
      },
      "properties": {
        "obj_id": "potted plant_14",
        "class_name": "potted plant",
        "class_id": 58,
        "mobility": "static",
        "confidence": 0.64,
        "observation_count": 7,
        "best_score": 0.885,
        "first_seen": "2026-02-26T12:35:24.505237+00:00",
        "last_seen": "2026-02-26T12:35:25.085669+00:00",
        "ttl_seconds": -1.0
      }
    },
    {
      "type": "Feature",
      "geometry": {
        "type": "Point",
        "coordinates": [
          3.3863,
          4.6002
        ]
      },
      "properties": {
        "obj_id": "potted plant_15",
        "class_name": "potted plant",
        "class_id": 58,
        "mobility": "static",
        "confidence": 0.536,
        "observation_count": 1,
        "best_score": 1.128,
        "first_seen": "2026-02-26T12:35:24.506310+00:00",
        "last_seen": "2026-02-26T12:35:24.506310+00:00",
        "ttl_seconds": -1.0
      }
    },
    {
      "type": "Feature",
      "geometry": {
        "type": "Point",
        "coordinates": [
          2.328,
          5.5478
        ]
      },
      "properties": {
        "obj_id": "potted plant_16",
        "class_name": "potted plant",
        "class_id": 58,
        "mobility": "static",
        "confidence": 0.53,
        "observation_count": 1,
        "best_score": 0.727,
        "first_seen": "2026-02-26T12:35:25.084722+00:00",
        "last_seen": "2026-02-26T12:35:25.084722+00:00",
        "ttl_seconds": -1.0
      }
    },
    {
      "type": "Feature",
      "geometry": {
        "type": "Point",
        "coordinates": [
          -0.6308,
          4.5834
        ]
      },
      "properties": {
        "obj_id": "refrigerator_17",
        "class_name": "refrigerator",
        "class_id": 72,
        "mobility": "static",
        "confidence": 0.622,
        "observation_count": 4,
        "best_score": 1.267,
        "first_seen": "2026-02-26T12:35:25.605292+00:00",
        "last_seen": "2026-02-26T12:35:25.607413+00:00",
        "ttl_seconds": -1.0
      }
    },
    {
      "type": "Feature",
      "geometry": {
        "type": "Point",
        "coordinates": [
          0.7338,
          6.4512
        ]
      },
      "properties": {
        "obj_id": "person_18",
        "class_name": "person",
        "class_id": 0,
        "mobility": "dynamic",
        "confidence": 0.599,
        "observation_count": 4,
        "best_score": 0.534,
        "first_seen": "2026-02-26T12:35:25.606476+00:00",
        "last_seen": "2026-02-26T12:35:25.607396+00:00",
        "ttl_seconds": 60.0
      }
    },
    {
      "type": "Feature",
      "geometry": {
        "type": "Point",
        "coordinates": [
          -0.2798,
          2.9635
        ]
      },
      "properties": {
        "obj_id": "chair_19",
        "class_name": "chair",
        "class_id": 56,
        "mobility": "static",
        "confidence": 0.577,
        "observation_count": 6,
        "best_score": 3.373,
        "first_seen": "2026-02-26T12:35:26.522509+00:00",
        "last_seen": "2026-02-26T12:35:26.524130+00:00",
        "ttl_seconds": -1.0
      }
    },
    {
      "type": "Feature",
      "geometry": {
        "type": "Point",
        "coordinates": [
          -0.3494,
          0.9227
        ]
      },
      "properties": {
        "obj_id": "bench_20",
        "class_name": "bench",
        "class_id": 13,
        "mobility": "static",
        "confidence": 0.672,
        "observation_count": 6,
        "best_score": 8.865,
        "first_seen": "2026-02-26T12:35:45.122907+00:00",
        "last_seen": "2026-02-26T12:35:45.124114+00:00",
        "ttl_seconds": -1.0
      }
    }
  ]
}